{
"type": "FeatureCollection",
"name": "4_atrativos_turisticos",
"crs": { "type": "name", "properties": { "name": "urn:ogc:def:crs:OGC:1.3:CRS84" } },
"features": [
{ "type": "Feature", "properties": { "MUNICIPIO": "Barracão", "ID_ATRATIV": 1, "NOME": "Igreja Histórica de São José", "RANK_PROD4": "4º", "LATITUDE": -26.230417420786001, "LONGITUDE": -53.582244016676398 }, "geometry": { "type": "Point", "coordinates": [ -53.582244016676398, -26.230417420786001 ] } },
{ "type": "Feature", "properties": { "MUNICIPIO": "Barracão", "ID_ATRATIV": 2, "NOME": "Marco das Três Fronteiras", "RANK_PROD4": "1º", "LATITUDE": -26.252692067770099, "LONGITUDE": -53.635789274346699 }, "geometry": { "type": "Point", "coordinates": [ -53.635789274346699, -26.252692067770099 ] } },
{ "type": "Feature", "properties": { "MUNICIPIO": "Barracão", "ID_ATRATIV": 3, "NOME": "Vale do Capanema", "RANK_PROD4": "Secundário / Complementar", "LATITUDE": -26.230369300667601, "LONGITUDE": -53.582168914827697 }, "geometry": { "type": "Point", "coordinates": [ -53.582168914827697, -26.230369300667601 ] } },
{ "type": "Feature", "properties": { "MUNICIPIO": "Barracão", "ID_ATRATIV": 4, "NOME": "Gruta de Santa Emília de Rodat", "RANK_PROD4": "2º", "LATITUDE": -26.230266558834401, "LONGITUDE": -53.4496766872359 }, "geometry": { "type": "Point", "coordinates": [ -53.4496766872359, -26.230266558834401 ] } },
{ "type": "Feature", "properties": { "MUNICIPIO": "Barracão", "ID_ATRATIV": 5, "NOME": "BR - 163", "RANK_PROD4": "Acesso / Infraestrutura", "LATITUDE": -26.252504621007699, "LONGITUDE": -53.635047750166301 }, "geometry": { "type": "Point", "coordinates": [ -53.635047750166301, -26.252504621007699 ] } },
{ "type": "Feature", "properties": { "MUNICIPIO": "Bonito", "ID_ATRATIV": 6, "NOME": "MS - 382", "RANK_PROD4": "Fora do Estudo", "LATITUDE": -21.105468750022801, "LONGITUDE": -56.529965387138802 }, "geometry": { "type": "Point", "coordinates": [ -56.529965387138802, -21.105468750022801 ] } },
{ "type": "Feature", "properties": { "MUNICIPIO": "Bonito", "ID_ATRATIV": 7, "NOME": "MS - 178", "RANK_PROD4": "Fora do Estudo", "LATITUDE": -21.112274806747301, "LONGITUDE": -56.508164393232903 }, "geometry": { "type": "Point", "coordinates": [ -56.508164393232903, -21.112274806747301 ] } },
{ "type": "Feature", "properties": { "MUNICIPIO": "Bonito", "ID_ATRATIV": 8, "NOME": "MS - 345", "RANK_PROD4": "Fora do Estudo", "LATITUDE": -21.1092321375606, "LONGITUDE": -56.482415187430199 }, "geometry": { "type": "Point", "coordinates": [ -56.482415187430199, -21.1092321375606 ] } },
{ "type": "Feature", "properties": { "MUNICIPIO": "Bonito", "ID_ATRATIV": 9, "NOME": "Aeroporto Regional de Bonito (BYO)", "RANK_PROD4": "Fora do Estudo", "LATITUDE": -21.244117380212099, "LONGITUDE": -56.450186674490197 }, "geometry": { "type": "Point", "coordinates": [ -56.450186674490197, -21.244117380212099 ] } },
{ "type": "Feature", "properties": { "MUNICIPIO": "Bonito", "ID_ATRATIV": 10, "NOME": "Gruta do Mimoso", "RANK_PROD4": "Fora do Estudo", "LATITUDE": -20.902778003304402, "LONGITUDE": -56.557320475493199 }, "geometry": { "type": "Point", "coordinates": [ -56.557320475493199, -20.902778003304402 ] } },
{ "type": "Feature", "properties": { "MUNICIPIO": "Bonito", "ID_ATRATIV": 11, "NOME": "Abismo Anhumas", "RANK_PROD4": "Fora do Estudo", "LATITUDE": -21.1449164212417, "LONGITUDE": -56.600205342947 }, "geometry": { "type": "Point", "coordinates": [ -56.600205342947, -21.1449164212417 ] } },
{ "type": "Feature", "properties": { "MUNICIPIO": "Bonito", "ID_ATRATIV": 12, "NOME": "Aquário Natural", "RANK_PROD4": "Fora do Estudo", "LATITUDE": -21.1631580653656, "LONGITUDE": -56.4389780908296 }, "geometry": { "type": "Point", "coordinates": [ -56.4389780908296, -21.1631580653656 ] } },
{ "type": "Feature", "properties": { "MUNICIPIO": "Bonito", "ID_ATRATIV": 13, "NOME": "Nascente Azul", "RANK_PROD4": "Fora do Estudo", "LATITUDE": -20.8934621435473, "LONGITUDE": -56.532026706181199 }, "geometry": { "type": "Point", "coordinates": [ -56.532026706181199, -20.8934621435473 ] } },
{ "type": "Feature", "properties": { "MUNICIPIO": "Bonito", "ID_ATRATIV": 14, "NOME": "Rio Formoso", "RANK_PROD4": "Fora do Estudo", "LATITUDE": -21.205329915825601, "LONGITUDE": -56.493477735588399 }, "geometry": { "type": "Point", "coordinates": [ -56.493477735588399, -21.205329915825601 ] } },
{ "type": "Feature", "properties": { "MUNICIPIO": "Bonito", "ID_ATRATIV": 15, "NOME": "Praça da Liberdade", "RANK_PROD4": "Fora do Estudo", "LATITUDE": -21.1283528682116, "LONGITUDE": -56.483441317814801 }, "geometry": { "type": "Point", "coordinates": [ -56.483441317814801, -21.1283528682116 ] } },
{ "type": "Feature", "properties": { "MUNICIPIO": "Bonito", "ID_ATRATIV": 16, "NOME": "Aeroporto Regional de Bonito", "RANK_PROD4": "Fora do Estudo", "LATITUDE": -21.243927384682198, "LONGITUDE": -56.450218861991203 }, "geometry": { "type": "Point", "coordinates": [ -56.450218861991203, -21.243927384682198 ] } },
{ "type": "Feature", "properties": { "MUNICIPIO": "Bonito", "ID_ATRATIV": 17, "NOME": "Serra da Bodoquena", "RANK_PROD4": "Fora do Estudo", "LATITUDE": -20.998997713790999, "LONGITUDE": -56.833376284307398 }, "geometry": { "type": "Point", "coordinates": [ -56.833376284307398, -20.998997713790999 ] } },
{ "type": "Feature", "properties": { "MUNICIPIO": "Bonito", "ID_ATRATIV": 18, "NOME": "Passeios de bote", "RANK_PROD4": "Fora do Estudo", "LATITUDE": -21.1431871554237, "LONGITUDE": -56.401279261994297 }, "geometry": { "type": "Point", "coordinates": [ -56.401279261994297, -21.1431871554237 ] } },
{ "type": "Feature", "properties": { "MUNICIPIO": "Bonito", "ID_ATRATIV": 19, "NOME": "Boia cross", "RANK_PROD4": "Fora do Estudo", "LATITUDE": -21.171287058748501, "LONGITUDE": -56.446404735009203 }, "geometry": { "type": "Point", "coordinates": [ -56.446404735009203, -21.171287058748501 ] } },
{ "type": "Feature", "properties": { "MUNICIPIO": "Bonito", "ID_ATRATIV": 20, "NOME": "Boca da Onça Ecotur", "RANK_PROD4": "Fora do Estudo", "LATITUDE": -20.7612384674248, "LONGITUDE": -56.713009827759699 }, "geometry": { "type": "Point", "coordinates": [ -56.713009827759699, -20.7612384674248 ] } },
{ "type": "Feature", "properties": { "MUNICIPIO": "Bonito", "ID_ATRATIV": 21, "NOME": "Balneário do Sol", "RANK_PROD4": "Fora do Estudo", "LATITUDE": -21.142179034194399, "LONGITUDE": -56.405486648502098 }, "geometry": { "type": "Point", "coordinates": [ -56.405486648502098, -21.142179034194399 ] } },
{ "type": "Feature", "properties": { "MUNICIPIO": "Bonito", "ID_ATRATIV": 22, "NOME": "Balneário Ilha Bonita", "RANK_PROD4": "Fora do Estudo", "LATITUDE": -21.144831438133899, "LONGITUDE": -56.400551361994097 }, "geometry": { "type": "Point", "coordinates": [ -56.400551361994097, -21.144831438133899 ] } },
{ "type": "Feature", "properties": { "MUNICIPIO": "Bonito", "ID_ATRATIV": 23, "NOME": "Balneário Municipal", "RANK_PROD4": "Fora do Estudo", "LATITUDE": -21.173278280413001, "LONGITUDE": -56.445918729454 }, "geometry": { "type": "Point", "coordinates": [ -56.445918729454, -21.173278280413001 ] } },
{ "type": "Feature", "properties": { "MUNICIPIO": "Bonito", "ID_ATRATIV": 24, "NOME": "Barra do Sucuri", "RANK_PROD4": "Fora do Estudo", "LATITUDE": -21.256720411424599, "LONGITUDE": -56.549246704318897 }, "geometry": { "type": "Point", "coordinates": [ -56.549246704318897, -21.256720411424599 ] } },
{ "type": "Feature", "properties": { "MUNICIPIO": "Bonito", "ID_ATRATIV": 25, "NOME": "Cabanas Boia Cross", "RANK_PROD4": "Fora do Estudo", "LATITUDE": -21.171347086888701, "LONGITUDE": -56.446351090829403 }, "geometry": { "type": "Point", "coordinates": [ -56.446351090829403, -21.171347086888701 ] } },
{ "type": "Feature", "properties": { "MUNICIPIO": "Bonito", "ID_ATRATIV": 26, "NOME": "Caiman Scuba Dive", "RANK_PROD4": "Fora do Estudo", "LATITUDE": -21.129414807737501, "LONGITUDE": -56.483107919666502 }, "geometry": { "type": "Point", "coordinates": [ -56.483107919666502, -21.129414807737501 ] } },
{ "type": "Feature", "properties": { "MUNICIPIO": "Bonito", "ID_ATRATIV": 27, "NOME": "Cavalgada Recanto do Peão", "RANK_PROD4": "Fora do Estudo", "LATITUDE": -21.1585664308631, "LONGITUDE": -56.442513073634103 }, "geometry": { "type": "Point", "coordinates": [ -56.442513073634103, -21.1585664308631 ] } },
{ "type": "Feature", "properties": { "MUNICIPIO": "Bonito", "ID_ATRATIV": 28, "NOME": "Ceita Corê Ecoturismo", "RANK_PROD4": "Fora do Estudo", "LATITUDE": -20.841917384154101, "LONGITUDE": -56.5902022196749 }, "geometry": { "type": "Point", "coordinates": [ -56.5902022196749, -20.841917384154101 ] } },
{ "type": "Feature", "properties": { "MUNICIPIO": "Bonito", "ID_ATRATIV": 29, "NOME": "Discovery Bonito Scuba no Rio Formoso", "RANK_PROD4": "Fora do Estudo", "LATITUDE": -21.1287759841031, "LONGITUDE": -56.485907177338497 }, "geometry": { "type": "Point", "coordinates": [ -56.485907177338497, -21.1287759841031 ] } },
{ "type": "Feature", "properties": { "MUNICIPIO": "Bonito", "ID_ATRATIV": 30, "NOME": "Estância Mimosa Ecoturismo", "RANK_PROD4": "Fora do Estudo", "LATITUDE": -20.982496667469398, "LONGITUDE": -56.516074342951498 }, "geometry": { "type": "Point", "coordinates": [ -56.516074342951498, -20.982496667469398 ] } },
{ "type": "Feature", "properties": { "MUNICIPIO": "Bonito", "ID_ATRATIV": 31, "NOME": "Fabrica Taboa Encantos", "RANK_PROD4": "Fora do Estudo", "LATITUDE": -19.6449408895391, "LONGITUDE": -56.640017281227003 }, "geometry": { "type": "Point", "coordinates": [ -56.640017281227003, -19.6449408895391 ] } },
{ "type": "Feature", "properties": { "MUNICIPIO": "Bonito", "ID_ATRATIV": 32, "NOME": "Gruta de São Miguel", "RANK_PROD4": "Fora do Estudo", "LATITUDE": -20.891953021199399, "LONGITUDE": -56.581070441453498 }, "geometry": { "type": "Point", "coordinates": [ -56.581070441453498, -20.891953021199399 ] } },
{ "type": "Feature", "properties": { "MUNICIPIO": "Bonito", "ID_ATRATIV": 33, "NOME": "Gruta do Lago Azul", "RANK_PROD4": "Fora do Estudo", "LATITUDE": -21.144365363434101, "LONGITUDE": -56.591383504322302 }, "geometry": { "type": "Point", "coordinates": [ -56.591383504322302, -21.144365363434101 ] } },
{ "type": "Feature", "properties": { "MUNICIPIO": "Bonito", "ID_ATRATIV": 34, "NOME": "Gruta São Mateus e Museu", "RANK_PROD4": "Fora do Estudo", "LATITUDE": -21.134128358189201, "LONGITUDE": -56.454032931306799 }, "geometry": { "type": "Point", "coordinates": [ -56.454032931306799, -21.134128358189201 ] } },
{ "type": "Feature", "properties": { "MUNICIPIO": "Bonito", "ID_ATRATIV": 35, "NOME": "Lobo Guara Bike Adventure", "RANK_PROD4": "Fora do Estudo", "LATITUDE": -21.129368692649798, "LONGITUDE": -56.483087919666602 }, "geometry": { "type": "Point", "coordinates": [ -56.483087919666602, -21.129368692649798 ] } },
{ "type": "Feature", "properties": { "MUNICIPIO": "Bonito", "ID_ATRATIV": 36, "NOME": "Parque das Cachoeiras", "RANK_PROD4": "Fora do Estudo", "LATITUDE": -21.0058530114832, "LONGITUDE": -56.501577119670102 }, "geometry": { "type": "Point", "coordinates": [ -56.501577119670102, -21.0058530114832 ] } },
{ "type": "Feature", "properties": { "MUNICIPIO": "Bonito", "ID_ATRATIV": 37, "NOME": "Parque Ecológico Baia Bonita", "RANK_PROD4": "Fora do Estudo", "LATITUDE": -21.1624230431723, "LONGITUDE": -56.440262960141801 }, "geometry": { "type": "Point", "coordinates": [ -56.440262960141801, -21.1624230431723 ] } },
{ "type": "Feature", "properties": { "MUNICIPIO": "Bonito", "ID_ATRATIV": 38, "NOME": "Porto da Ilha", "RANK_PROD4": "Fora do Estudo", "LATITUDE": -21.118739766501299, "LONGITUDE": -56.386800948502803 }, "geometry": { "type": "Point", "coordinates": [ -56.386800948502803, -21.118739766501299 ] } },
{ "type": "Feature", "properties": { "MUNICIPIO": "Bonito", "ID_ATRATIV": 39, "NOME": "Praia da Figueira", "RANK_PROD4": "Fora do Estudo", "LATITUDE": -21.251795295837599, "LONGITUDE": -56.535326061991199 }, "geometry": { "type": "Point", "coordinates": [ -56.535326061991199, -21.251795295837599 ] } },
{ "type": "Feature", "properties": { "MUNICIPIO": "Bonito", "ID_ATRATIV": 40, "NOME": "Projeto Jibóia", "RANK_PROD4": "Fora do Estudo", "LATITUDE": -21.121557527695899, "LONGITUDE": -56.4973186601432 }, "geometry": { "type": "Point", "coordinates": [ -56.4973186601432, -21.121557527695899 ] } },
{ "type": "Feature", "properties": { "MUNICIPIO": "Bonito", "ID_ATRATIV": 41, "NOME": "Rio do Peixe", "RANK_PROD4": "Fora do Estudo", "LATITUDE": -20.862596499477299, "LONGITUDE": -56.530317746658397 }, "geometry": { "type": "Point", "coordinates": [ -56.530317746658397, -20.862596499477299 ] } },
{ "type": "Feature", "properties": { "MUNICIPIO": "Bonito", "ID_ATRATIV": 42, "NOME": "Rio Sucuri Ecoturismo", "RANK_PROD4": "Fora do Estudo", "LATITUDE": -21.254429307071302, "LONGITUDE": -56.569999948499003 }, "geometry": { "type": "Point", "coordinates": [ -56.569999948499003, -21.254429307071302 ] } },
{ "type": "Feature", "properties": { "MUNICIPIO": "Campo Grande", "ID_ATRATIV": 43, "NOME": "Centro Cultural José Octavio Guizzo", "RANK_PROD4": "Fora do Estudo", "LATITUDE": -20.467297889562101, "LONGITUDE": -54.617741374510203 }, "geometry": { "type": "Point", "coordinates": [ -54.617741374510203, -20.467297889562101 ] } },
{ "type": "Feature", "properties": { "MUNICIPIO": "Campo Grande", "ID_ATRATIV": 44, "NOME": "Complexo Ferroviário", "RANK_PROD4": "Fora do Estudo", "LATITUDE": -20.4497128272635, "LONGITUDE": -54.620627145675201 }, "geometry": { "type": "Point", "coordinates": [ -54.620627145675201, -20.4497128272635 ] } },
{ "type": "Feature", "properties": { "MUNICIPIO": "Campo Grande", "ID_ATRATIV": 45, "NOME": "Museu de Medicina de Mato Grosso do Sul", "RANK_PROD4": "Fora do Estudo", "LATITUDE": -20.4771844614442, "LONGITUDE": -54.615350132181099 }, "geometry": { "type": "Point", "coordinates": [ -54.615350132181099, -20.4771844614442 ] } },
{ "type": "Feature", "properties": { "MUNICIPIO": "Campo Grande", "ID_ATRATIV": 46, "NOME": "Morada dos Baís", "RANK_PROD4": "Fora do Estudo", "LATITUDE": -20.4641512600755, "LONGITUDE": -54.620198276358998 }, "geometry": { "type": "Point", "coordinates": [ -54.620198276358998, -20.4641512600755 ] } },
{ "type": "Feature", "properties": { "MUNICIPIO": "Campo Grande", "ID_ATRATIV": 47, "NOME": "Museu de Arqueologia da UFMS", "RANK_PROD4": "Fora do Estudo", "LATITUDE": -20.468162639619901, "LONGITUDE": -54.617787905194298 }, "geometry": { "type": "Point", "coordinates": [ -54.617787905194298, -20.468162639619901 ] } },
{ "type": "Feature", "properties": { "MUNICIPIO": "Campo Grande", "ID_ATRATIV": 48, "NOME": "Correios e Telágrafos", "RANK_PROD4": "Fora do Estudo", "LATITUDE": -20.461116062161199, "LONGITUDE": -54.619729873161099 }, "geometry": { "type": "Point", "coordinates": [ -54.619729873161099, -20.461116062161199 ] } },
{ "type": "Feature", "properties": { "MUNICIPIO": "Campo Grande", "ID_ATRATIV": 49, "NOME": "Casa do Artesão", "RANK_PROD4": "Fora do Estudo", "LATITUDE": -20.463926649363898, "LONGITUDE": -54.618438703898804 }, "geometry": { "type": "Point", "coordinates": [ -54.618438703898804, -20.463926649363898 ] } },
{ "type": "Feature", "properties": { "MUNICIPIO": "Campo Grande", "ID_ATRATIV": 50, "NOME": "Memorial da Cultura Indígena (em reforma)", "RANK_PROD4": "Fora do Estudo", "LATITUDE": -20.469243152815199, "LONGITUDE": -54.570039432181197 }, "geometry": { "type": "Point", "coordinates": [ -54.570039432181197, -20.469243152815199 ] } },
{ "type": "Feature", "properties": { "MUNICIPIO": "Campo Grande", "ID_ATRATIV": 51, "NOME": "Museu de Arte Contemporânea – Marco", "RANK_PROD4": "Fora do Estudo", "LATITUDE": -20.451008671166999, "LONGITUDE": -54.575525759168698 }, "geometry": { "type": "Point", "coordinates": [ -54.575525759168698, -20.451008671166999 ] } },
{ "type": "Feature", "properties": { "MUNICIPIO": "Campo Grande", "ID_ATRATIV": 52, "NOME": "Museu José Antônio Pereira", "RANK_PROD4": "Fora do Estudo", "LATITUDE": -20.535016991949501, "LONGITUDE": -54.629226859166501 }, "geometry": { "type": "Point", "coordinates": [ -54.629226859166501, -20.535016991949501 ] } },
{ "type": "Feature", "properties": { "MUNICIPIO": "Campo Grande", "ID_ATRATIV": 53, "NOME": "Parque Florestal Antônio De Albuquerque – Horto Florestal", "RANK_PROD4": "Fora do Estudo", "LATITUDE": -20.469431450278702, "LONGITUDE": -54.622840945674803 }, "geometry": { "type": "Point", "coordinates": [ -54.622840945674803, -20.469431450278702 ] } },
{ "type": "Feature", "properties": { "MUNICIPIO": "Campo Grande", "ID_ATRATIV": 54, "NOME": "Parque Ecológico Do Anhanduí", "RANK_PROD4": "Fora do Estudo", "LATITUDE": -20.506579595484599, "LONGITUDE": -54.642967432180498 }, "geometry": { "type": "Point", "coordinates": [ -54.642967432180498, -20.506579595484599 ] } },
{ "type": "Feature", "properties": { "MUNICIPIO": "Campo Grande", "ID_ATRATIV": 55, "NOME": "Parque das Nações Indígenas", "RANK_PROD4": "Fora do Estudo", "LATITUDE": -20.456206974475901, "LONGITUDE": -54.581260743826498 }, "geometry": { "type": "Point", "coordinates": [ -54.581260743826498, -20.456206974475901 ] } },
{ "type": "Feature", "properties": { "MUNICIPIO": "Campo Grande", "ID_ATRATIV": 56, "NOME": "Parque do Sóter", "RANK_PROD4": "Fora do Estudo", "LATITUDE": -20.429204938389098, "LONGITUDE": -54.576636889853397 }, "geometry": { "type": "Point", "coordinates": [ -54.576636889853397, -20.429204938389098 ] } },
{ "type": "Feature", "properties": { "MUNICIPIO": "Campo Grande", "ID_ATRATIV": 57, "NOME": "Parque Estadual do Prosa", "RANK_PROD4": "Fora do Estudo", "LATITUDE": -20.450374417575699, "LONGITUDE": -54.5608383168396 }, "geometry": { "type": "Point", "coordinates": [ -54.5608383168396, -20.450374417575699 ] } },
{ "type": "Feature", "properties": { "MUNICIPIO": "Campo Grande", "ID_ATRATIV": 58, "NOME": "Parque Linear do Imbirussu", "RANK_PROD4": "Fora do Estudo", "LATITUDE": -20.445013742158999, "LONGITUDE": -54.697515648965499 }, "geometry": { "type": "Point", "coordinates": [ -54.697515648965499, -20.445013742158999 ] } },
{ "type": "Feature", "properties": { "MUNICIPIO": "Campo Grande", "ID_ATRATIV": 59, "NOME": "Parque Estadual Matas Do Segredo", "RANK_PROD4": "Fora do Estudo", "LATITUDE": -20.398371892094602, "LONGITUDE": -54.5861971456766 }, "geometry": { "type": "Point", "coordinates": [ -54.5861971456766, -20.398371892094602 ] } },
{ "type": "Feature", "properties": { "MUNICIPIO": "Campo Grande", "ID_ATRATIV": 60, "NOME": "Lago Do Amor", "RANK_PROD4": "Fora do Estudo", "LATITUDE": -20.5025532011317, "LONGITUDE": -54.6187871033448 }, "geometry": { "type": "Point", "coordinates": [ -54.6187871033448, -20.5025532011317 ] } },
{ "type": "Feature", "properties": { "MUNICIPIO": "Campo Grande", "ID_ATRATIV": 61, "NOME": "Parque Doutor Anísio De Barros – Lagoa Itatiaia", "RANK_PROD4": "Fora do Estudo", "LATITUDE": -20.478036277002399, "LONGITUDE": -54.582739040316902 }, "geometry": { "type": "Point", "coordinates": [ -54.582739040316902, -20.478036277002399 ] } },
{ "type": "Feature", "properties": { "MUNICIPIO": "Campo Grande", "ID_ATRATIV": 62, "NOME": "Estância Alegria", "RANK_PROD4": "Fora do Estudo", "LATITUDE": -20.643986262304502, "LONGITUDE": -54.532807547519099 }, "geometry": { "type": "Point", "coordinates": [ -54.532807547519099, -20.643986262304502 ] } },
{ "type": "Feature", "properties": { "MUNICIPIO": "Campo Grande", "ID_ATRATIV": 63, "NOME": "Estância Hanay", "RANK_PROD4": "Fora do Estudo", "LATITUDE": -20.470686711262999, "LONGITUDE": -54.454993347523398 }, "geometry": { "type": "Point", "coordinates": [ -54.454993347523398, -20.470686711262999 ] } },
{ "type": "Feature", "properties": { "MUNICIPIO": "Campo Grande", "ID_ATRATIV": 64, "NOME": "Estância Jóia", "RANK_PROD4": "Fora do Estudo", "LATITUDE": -20.3253389395345, "LONGITUDE": -54.560086574513797 }, "geometry": { "type": "Point", "coordinates": [ -54.560086574513797, -20.3253389395345 ] } },
{ "type": "Feature", "properties": { "MUNICIPIO": "Campo Grande", "ID_ATRATIV": 65, "NOME": "Estância Malhete", "RANK_PROD4": "Fora do Estudo", "LATITUDE": -20.375455572793001, "LONGITUDE": -54.610426247525702 }, "geometry": { "type": "Point", "coordinates": [ -54.610426247525702, -20.375455572793001 ] } },
{ "type": "Feature", "properties": { "MUNICIPIO": "Campo Grande", "ID_ATRATIV": 66, "NOME": "Estância Vovô Dedê", "RANK_PROD4": "Fora do Estudo", "LATITUDE": -20.2852125227652, "LONGITUDE": -54.7795895456793 }, "geometry": { "type": "Point", "coordinates": [ -54.7795895456793, -20.2852125227652 ] } },
{ "type": "Feature", "properties": { "MUNICIPIO": "Campo Grande", "ID_ATRATIV": 67, "NOME": "Fazenda Pontal das Águas", "RANK_PROD4": "Fora do Estudo", "LATITUDE": -20.4661138422872, "LONGITUDE": -54.436476632181297 }, "geometry": { "type": "Point", "coordinates": [ -54.436476632181297, -20.4661138422872 ] } },
{ "type": "Feature", "properties": { "MUNICIPIO": "Campo Grande", "ID_ATRATIV": 68, "NOME": "Pousada Rural Cabanas do Pontal", "RANK_PROD4": "Fora do Estudo", "LATITUDE": -20.2223604291047, "LONGITUDE": -54.917264376365097 }, "geometry": { "type": "Point", "coordinates": [ -54.917264376365097, -20.2223604291047 ] } },
{ "type": "Feature", "properties": { "MUNICIPIO": "Campo Grande", "ID_ATRATIV": 69, "NOME": "Recanto Nippon", "RANK_PROD4": "Fora do Estudo", "LATITUDE": -20.391898795301898, "LONGITUDE": -54.661746903347797 }, "geometry": { "type": "Point", "coordinates": [ -54.661746903347797, -20.391898795301898 ] } },
{ "type": "Feature", "properties": { "MUNICIPIO": "Campo Grande", "ID_ATRATIV": 70, "NOME": "Toca do Ouriço", "RANK_PROD4": "Fora do Estudo", "LATITUDE": -20.381071209341702, "LONGITUDE": -54.610536361019101 }, "geometry": { "type": "Point", "coordinates": [ -54.610536361019101, -20.381071209341702 ] } },
{ "type": "Feature", "properties": { "MUNICIPIO": "Campo Grande", "ID_ATRATIV": 71, "NOME": "Monumento Maria Fumaça", "RANK_PROD4": "Fora do Estudo", "LATITUDE": -20.4566904274898, "LONGITUDE": -54.620152297799997 }, "geometry": { "type": "Point", "coordinates": [ -54.620152297799997, -20.4566904274898 ] } },
{ "type": "Feature", "properties": { "MUNICIPIO": "Campo Grande", "ID_ATRATIV": 72, "NOME": "Chácara J&F", "RANK_PROD4": "Fora do Estudo", "LATITUDE": -20.292608051839402, "LONGITUDE": -54.547763874514402 }, "geometry": { "type": "Point", "coordinates": [ -54.547763874514402, -20.292608051839402 ] } },
{ "type": "Feature", "properties": { "MUNICIPIO": "Campo Grande", "ID_ATRATIV": 73, "NOME": "Igreja Universal do Reino de Deus", "RANK_PROD4": "Fora do Estudo", "LATITUDE": -20.451392536453501, "LONGITUDE": -54.688002027150901 }, "geometry": { "type": "Point", "coordinates": [ -54.688002027150901, -20.451392536453501 ] } },
{ "type": "Feature", "properties": { "MUNICIPIO": "Campo Grande", "ID_ATRATIV": 74, "NOME": "Monumento Estátua Manoel Barros", "RANK_PROD4": "Fora do Estudo", "LATITUDE": -20.463344893305699, "LONGITUDE": -54.613837318687999 }, "geometry": { "type": "Point", "coordinates": [ -54.613837318687999, -20.463344893305699 ] } },
{ "type": "Feature", "properties": { "MUNICIPIO": "Campo Grande", "ID_ATRATIV": 75, "NOME": "Bioparque Pantanal", "RANK_PROD4": "Fora do Estudo", "LATITUDE": -20.455837339839299, "LONGITUDE": -54.5760472033461 }, "geometry": { "type": "Point", "coordinates": [ -54.5760472033461, -20.455837339839299 ] } },
{ "type": "Feature", "properties": { "MUNICIPIO": "Campo Grande", "ID_ATRATIV": 76, "NOME": "Esplanada Ferroviária", "RANK_PROD4": "Fora do Estudo", "LATITUDE": -20.4540445805297, "LONGITUDE": -54.620298861017197 }, "geometry": { "type": "Point", "coordinates": [ -54.620298861017197, -20.4540445805297 ] } },
{ "type": "Feature", "properties": { "MUNICIPIO": "Campo Grande", "ID_ATRATIV": 77, "NOME": "Feira Central", "RANK_PROD4": "Fora do Estudo", "LATITUDE": -20.4509748993902, "LONGITUDE": -54.619948164991001 }, "geometry": { "type": "Point", "coordinates": [ -54.619948164991001, -20.4509748993902 ] } },
{ "type": "Feature", "properties": { "MUNICIPIO": "Campo Grande", "ID_ATRATIV": 78, "NOME": "Morro do Ernesto", "RANK_PROD4": "Fora do Estudo", "LATITUDE": -20.338923002584199, "LONGITUDE": -54.709311274513702 }, "geometry": { "type": "Point", "coordinates": [ -54.709311274513702, -20.338923002584199 ] } },
{ "type": "Feature", "properties": { "MUNICIPIO": "Campo Grande", "ID_ATRATIV": 79, "NOME": "Morada dos Baís", "RANK_PROD4": "Fora do Estudo", "LATITUDE": -20.464231674063001, "LONGITUDE": -54.619597461569597 }, "geometry": { "type": "Point", "coordinates": [ -54.619597461569597, -20.464231674063001 ] } },
{ "type": "Feature", "properties": { "MUNICIPIO": "Campo Grande", "ID_ATRATIV": 80, "NOME": "Hotel Gaspar", "RANK_PROD4": "Fora do Estudo", "LATITUDE": -20.456426827076001, "LONGITUDE": -54.620124788003899 }, "geometry": { "type": "Point", "coordinates": [ -54.620124788003899, -20.456426827076001 ] } },
{ "type": "Feature", "properties": { "MUNICIPIO": "Campo Grande", "ID_ATRATIV": 81, "NOME": "Memorial da Cidadania e da Cultura Popular Apolônio de Carvalho", "RANK_PROD4": "Fora do Estudo", "LATITUDE": -20.468143836644298, "LONGITUDE": -54.617625959168002 }, "geometry": { "type": "Point", "coordinates": [ -54.617625959168002, -20.468143836644298 ] } },
{ "type": "Feature", "properties": { "MUNICIPIO": "Campo Grande", "ID_ATRATIV": 82, "NOME": "Mercado Municipal Antônio Valente", "RANK_PROD4": "Fora do Estudo", "LATITUDE": -20.466440965060599, "LONGITUDE": -54.619908989852298 }, "geometry": { "type": "Point", "coordinates": [ -54.619908989852298, -20.466440965060599 ] } },
{ "type": "Feature", "properties": { "MUNICIPIO": "Campo Grande", "ID_ATRATIV": 83, "NOME": "Museu da Cultura Dom Bosco", "RANK_PROD4": "Fora do Estudo", "LATITUDE": -20.454642881351301, "LONGITUDE": -54.567533361017098 }, "geometry": { "type": "Point", "coordinates": [ -54.567533361017098, -20.454642881351301 ] } },
{ "type": "Feature", "properties": { "MUNICIPIO": "Campo Grande", "ID_ATRATIV": 84, "NOME": "Palácio das Comunicações", "RANK_PROD4": "Fora do Estudo", "LATITUDE": -20.440689888394001, "LONGITUDE": -54.555408786155802 }, "geometry": { "type": "Point", "coordinates": [ -54.555408786155802, -20.440689888394001 ] } },
{ "type": "Feature", "properties": { "MUNICIPIO": "Campo Grande", "ID_ATRATIV": 85, "NOME": "Paróquia Santo Antônio - Catedral Nossa Senhora da Abadia", "RANK_PROD4": "Fora do Estudo", "LATITUDE": -20.4660104937388, "LONGITUDE": -54.617983790405098 }, "geometry": { "type": "Point", "coordinates": [ -54.617983790405098, -20.4660104937388 ] } },
{ "type": "Feature", "properties": { "MUNICIPIO": "Campo Grande", "ID_ATRATIV": 86, "NOME": "Paróquia São Francisco de Assis", "RANK_PROD4": "Fora do Estudo", "LATITUDE": -20.442589924249202, "LONGITUDE": -54.619595974511 }, "geometry": { "type": "Point", "coordinates": [ -54.619595974511, -20.442589924249202 ] } },
{ "type": "Feature", "properties": { "MUNICIPIO": "Campo Grande", "ID_ATRATIV": 87, "NOME": "Pesqueiro Nippon", "RANK_PROD4": "Fora do Estudo", "LATITUDE": -20.391848512927201, "LONGITUDE": -54.661768361018801 }, "geometry": { "type": "Point", "coordinates": [ -54.661768361018801, -20.391848512927201 ] } },
{ "type": "Feature", "properties": { "MUNICIPIO": "Campo Grande", "ID_ATRATIV": 88, "NOME": "Praça Ary Coelho", "RANK_PROD4": "Fora do Estudo", "LATITUDE": -20.463683717198801, "LONGITUDE": -54.616303775309298 }, "geometry": { "type": "Point", "coordinates": [ -54.616303775309298, -20.463683717198801 ] } },
{ "type": "Feature", "properties": { "MUNICIPIO": "Campo Grande", "ID_ATRATIV": 89, "NOME": "Praça Esportiva Belmar Fidalgo", "RANK_PROD4": "Fora do Estudo", "LATITUDE": -20.459494640058299, "LONGITUDE": -54.606917847523597 }, "geometry": { "type": "Point", "coordinates": [ -54.606917847523597, -20.459494640058299 ] } },
{ "type": "Feature", "properties": { "MUNICIPIO": "Campo Grande", "ID_ATRATIV": 90, "NOME": "Praça Comendador Oshiro Takemori", "RANK_PROD4": "Fora do Estudo", "LATITUDE": -20.467214862480301, "LONGITUDE": -54.620102161016902 }, "geometry": { "type": "Point", "coordinates": [ -54.620102161016902, -20.467214862480301 ] } },
{ "type": "Feature", "properties": { "MUNICIPIO": "Campo Grande", "ID_ATRATIV": 91, "NOME": "Praça das Araras", "RANK_PROD4": "Fora do Estudo", "LATITUDE": -20.462942571735901, "LONGITUDE": -54.6315391484233 }, "geometry": { "type": "Point", "coordinates": [ -54.6315391484233, -20.462942571735901 ] } },
{ "type": "Feature", "properties": { "MUNICIPIO": "Campo Grande", "ID_ATRATIV": 92, "NOME": "Praça do Rádio", "RANK_PROD4": "Fora do Estudo", "LATITUDE": -20.463384851627701, "LONGITUDE": -54.631367487054902 }, "geometry": { "type": "Point", "coordinates": [ -54.631367487054902, -20.463384851627701 ] } },
{ "type": "Feature", "properties": { "MUNICIPIO": "Campo Grande", "ID_ATRATIV": 93, "NOME": "Praça dos Imigrantes", "RANK_PROD4": "Fora do Estudo", "LATITUDE": -20.466788223155302, "LONGITUDE": -54.613014689852399 }, "geometry": { "type": "Point", "coordinates": [ -54.613014689852399, -20.466788223155302 ] } },
{ "type": "Feature", "properties": { "MUNICIPIO": "Campo Grande", "ID_ATRATIV": 94, "NOME": "Praça Pantanal Sul", "RANK_PROD4": "Fora do Estudo", "LATITUDE": -20.4599431461655, "LONGITUDE": -54.604797662528398 }, "geometry": { "type": "Point", "coordinates": [ -54.604797662528398, -20.4599431461655 ] } },
{ "type": "Feature", "properties": { "MUNICIPIO": "Campo Grande", "ID_ATRATIV": 95, "NOME": "Relógio Central Renato Barbosa Rezende", "RANK_PROD4": "Fora do Estudo", "LATITUDE": -20.4640810600206, "LONGITUDE": -54.618888833200998 }, "geometry": { "type": "Point", "coordinates": [ -54.618888833200998, -20.4640810600206 ] } },
{ "type": "Feature", "properties": { "MUNICIPIO": "Campo Grande", "ID_ATRATIV": 96, "NOME": "Santuário Estadual Nossa Senhora do Perpétuo Socorro", "RANK_PROD4": "Fora do Estudo", "LATITUDE": -20.466733143259798, "LONGITUDE": -54.631634657319601 }, "geometry": { "type": "Point", "coordinates": [ -54.631634657319601, -20.466733143259798 ] } },
{ "type": "Feature", "properties": { "MUNICIPIO": "Campo Grande", "ID_ATRATIV": 97, "NOME": "Eco Park Clube Campo Grande", "RANK_PROD4": "Fora do Estudo", "LATITUDE": -20.472253031544799, "LONGITUDE": -54.476225057043003 }, "geometry": { "type": "Point", "coordinates": [ -54.476225057043003, -20.472253031544799 ] } },
{ "type": "Feature", "properties": { "MUNICIPIO": "Campo Grande", "ID_ATRATIV": 98, "NOME": "Carlos Iracy Tour da Experiência", "RANK_PROD4": "Fora do Estudo", "LATITUDE": -20.4621147330698, "LONGITUDE": -54.625501862794103 }, "geometry": { "type": "Point", "coordinates": [ -54.625501862794103, -20.4621147330698 ] } },
{ "type": "Feature", "properties": { "MUNICIPIO": "Campo Grande", "ID_ATRATIV": 99, "NOME": "Sitio Harmonia", "RANK_PROD4": "Fora do Estudo", "LATITUDE": -20.210630575187199, "LONGITUDE": -54.586108916845802 }, "geometry": { "type": "Point", "coordinates": [ -54.586108916845802, -20.210630575187199 ] } },
{ "type": "Feature", "properties": { "MUNICIPIO": "Campo Grande", "ID_ATRATIV": 100, "NOME": "BR - 262", "RANK_PROD4": "Fora do Estudo", "LATITUDE": -20.477739661287099, "LONGITUDE": -54.751838139417501 }, "geometry": { "type": "Point", "coordinates": [ -54.751838139417501, -20.477739661287099 ] } },
{ "type": "Feature", "properties": { "MUNICIPIO": "Campo Grande", "ID_ATRATIV": 101, "NOME": "BR - 163", "RANK_PROD4": "Fora do Estudo", "LATITUDE": -20.378125809851198, "LONGITUDE": -54.537708096637502 }, "geometry": { "type": "Point", "coordinates": [ -54.537708096637502, -20.378125809851198 ] } },
{ "type": "Feature", "properties": { "MUNICIPIO": "Campo Grande", "ID_ATRATIV": 102, "NOME": "BR - 060", "RANK_PROD4": "Fora do Estudo", "LATITUDE": -20.552352200423002, "LONGITUDE": -54.669089030176799 }, "geometry": { "type": "Point", "coordinates": [ -54.669089030176799, -20.552352200423002 ] } },
{ "type": "Feature", "properties": { "MUNICIPIO": "Campo Grande", "ID_ATRATIV": 103, "NOME": "BR - 010", "RANK_PROD4": "Fora do Estudo", "LATITUDE": -20.4029092995745, "LONGITUDE": -54.6178007678865 }, "geometry": { "type": "Point", "coordinates": [ -54.6178007678865, -20.4029092995745 ] } },
{ "type": "Feature", "properties": { "MUNICIPIO": "Campo Grande", "ID_ATRATIV": 104, "NOME": "MS - 080", "RANK_PROD4": "Fora do Estudo", "LATITUDE": -20.409481170315399, "LONGITUDE": -54.731232271589803 }, "geometry": { "type": "Point", "coordinates": [ -54.731232271589803, -20.409481170315399 ] } },
{ "type": "Feature", "properties": { "MUNICIPIO": "Campo grande", "ID_ATRATIV": 105, "NOME": "Aeroporto Internacional de Campo Grande", "RANK_PROD4": "Fora do Estudo", "LATITUDE": -20.457280562806801, "LONGITUDE": -54.668732530110297 }, "geometry": { "type": "Point", "coordinates": [ -54.668732530110297, -20.457280562806801 ] } },
{ "type": "Feature", "properties": { "MUNICIPIO": "Capanema", "ID_ATRATIV": 106, "NOME": "Salto do Rio Silva Jardim", "RANK_PROD4": "2º", "LATITUDE": -25.659915575336701, "LONGITUDE": -53.789761851477103 }, "geometry": { "type": "Point", "coordinates": [ -53.789761851477103, -25.659915575336701 ] } },
{ "type": "Feature", "properties": { "MUNICIPIO": "Capanema", "ID_ATRATIV": 107, "NOME": "Ilha do Cavalo", "RANK_PROD4": "Secundário / Complementar", "LATITUDE": -25.5586141773917, "LONGITUDE": -53.753800419098603 }, "geometry": { "type": "Point", "coordinates": [ -53.753800419098603, -25.5586141773917 ] } },
{ "type": "Feature", "properties": { "MUNICIPIO": "Capanema", "ID_ATRATIV": 108, "NOME": "Balneário Martini", "RANK_PROD4": "Secundário / Complementar", "LATITUDE": -25.600977050848599, "LONGITUDE": -53.779376332037899 }, "geometry": { "type": "Point", "coordinates": [ -53.779376332037899, -25.600977050848599 ] } },
{ "type": "Feature", "properties": { "MUNICIPIO": "Capanema", "ID_ATRATIV": 109, "NOME": "Balneário/Camping Kaú", "RANK_PROD4": "Secundário / Complementar", "LATITUDE": -25.5848883250131, "LONGITUDE": -53.871537940538502 }, "geometry": { "type": "Point", "coordinates": [ -53.871537940538502, -25.5848883250131 ] } },
{ "type": "Feature", "properties": { "MUNICIPIO": "Capanema", "ID_ATRATIV": 110, "NOME": "Camping Ecológico Wesling", "RANK_PROD4": "Secundário / Complementar", "LATITUDE": -25.5897956309629, "LONGITUDE": -53.912422711702803 }, "geometry": { "type": "Point", "coordinates": [ -53.912422711702803, -25.5897956309629 ] } },
{ "type": "Feature", "properties": { "MUNICIPIO": "Capanema", "ID_ATRATIV": 111, "NOME": "Camping Por do Sol", "RANK_PROD4": "Secundário / Complementar", "LATITUDE": -25.6003993171194, "LONGITUDE": -53.775821149781201 }, "geometry": { "type": "Point", "coordinates": [ -53.775821149781201, -25.6003993171194 ] } },
{ "type": "Feature", "properties": { "MUNICIPIO": "Capanema", "ID_ATRATIV": 112, "NOME": "BR - 163", "RANK_PROD4": "Acesso / Infraestrutura", "LATITUDE": -25.6699258143741, "LONGITUDE": -53.8085162358188 }, "geometry": { "type": "Point", "coordinates": [ -53.8085162358188, -25.6699258143741 ] } },
{ "type": "Feature", "properties": { "MUNICIPIO": "Corumbá", "ID_ATRATIV": 113, "NOME": "Pantanal", "RANK_PROD4": "Fora do Estudo", "LATITUDE": -19.030692150103, "LONGITUDE": -57.650234600880701 }, "geometry": { "type": "Point", "coordinates": [ -57.650234600880701, -19.030692150103 ] } },
{ "type": "Feature", "properties": { "MUNICIPIO": "Corumbá", "ID_ATRATIV": 114, "NOME": "Rio Paraguai", "RANK_PROD4": "Fora do Estudo", "LATITUDE": -18.730558098882302, "LONGITUDE": -57.415873264714598 }, "geometry": { "type": "Point", "coordinates": [ -57.415873264714598, -18.730558098882302 ] } },
{ "type": "Feature", "properties": { "MUNICIPIO": "Corumbá", "ID_ATRATIV": 115, "NOME": "Porto Geral", "RANK_PROD4": "Fora do Estudo", "LATITUDE": -18.996617480382699, "LONGITUDE": -57.653385375545597 }, "geometry": { "type": "Point", "coordinates": [ -57.653385375545597, -18.996617480382699 ] } },
{ "type": "Feature", "properties": { "MUNICIPIO": "Corumbá", "ID_ATRATIV": 116, "NOME": "Barcos-hotéis", "RANK_PROD4": "Fora do Estudo", "LATITUDE": -18.998351026653602, "LONGITUDE": -57.614343416626603 }, "geometry": { "type": "Point", "coordinates": [ -57.614343416626603, -18.998351026653602 ] } },
{ "type": "Feature", "properties": { "MUNICIPIO": "Corumbá", "ID_ATRATIV": 117, "NOME": "Mirante do Cristo Rei", "RANK_PROD4": "Fora do Estudo", "LATITUDE": -19.017132452267099, "LONGITUDE": -57.641207653618203 }, "geometry": { "type": "Point", "coordinates": [ -57.641207653618203, -19.017132452267099 ] } },
{ "type": "Feature", "properties": { "MUNICIPIO": "Corumbá", "ID_ATRATIV": 118, "NOME": "Museu de História do Pantanal (Muhpan)", "RANK_PROD4": "Fora do Estudo", "LATITUDE": -18.997231325858401, "LONGITUDE": -57.6542536430062 }, "geometry": { "type": "Point", "coordinates": [ -57.6542536430062, -18.997231325858401 ] } },
{ "type": "Feature", "properties": { "MUNICIPIO": "Corumbá", "ID_ATRATIV": 119, "NOME": "Memorial do Homem Pantaneiro", "RANK_PROD4": "Fora do Estudo", "LATITUDE": -18.9975539485879, "LONGITUDE": -57.655406092741103 }, "geometry": { "type": "Point", "coordinates": [ -57.655406092741103, -18.9975539485879 ] } },
{ "type": "Feature", "properties": { "MUNICIPIO": "Corumbá", "ID_ATRATIV": 120, "NOME": "Carnaval de Corumbá", "RANK_PROD4": "Fora do Estudo", "LATITUDE": -18.994769198985502, "LONGITUDE": -57.656447911149002 }, "geometry": { "type": "Point", "coordinates": [ -57.656447911149002, -18.994769198985502 ] } },
{ "type": "Feature", "properties": { "MUNICIPIO": "Corumbá", "ID_ATRATIV": 121, "NOME": "Casario do Porto Geral de Corumbá", "RANK_PROD4": "Fora do Estudo", "LATITUDE": -18.997408126138499, "LONGITUDE": -57.655425277397399 }, "geometry": { "type": "Point", "coordinates": [ -57.655425277397399, -18.997408126138499 ] } },
{ "type": "Feature", "properties": { "MUNICIPIO": "Corumbá", "ID_ATRATIV": 122, "NOME": "Cristo Rei do Pantanal", "RANK_PROD4": "Fora do Estudo", "LATITUDE": -19.018282545588399, "LONGITUDE": -57.640383089037201 }, "geometry": { "type": "Point", "coordinates": [ -57.640383089037201, -19.018282545588399 ] } },
{ "type": "Feature", "properties": { "MUNICIPIO": "Corumbá", "ID_ATRATIV": 123, "NOME": "Artizu - casa da artesã Izulina Xavier", "RANK_PROD4": "Fora do Estudo", "LATITUDE": -19.001557353732402, "LONGITUDE": -57.647889519725297 }, "geometry": { "type": "Point", "coordinates": [ -57.647889519725297, -19.001557353732402 ] } },
{ "type": "Feature", "properties": { "MUNICIPIO": "Corumbá", "ID_ATRATIV": 124, "NOME": "Escadinha da Quinze", "RANK_PROD4": "Fora do Estudo", "LATITUDE": -18.997790426744, "LONGITUDE": -57.655118162053597 }, "geometry": { "type": "Point", "coordinates": [ -57.655118162053597, -18.997790426744 ] } },
{ "type": "Feature", "properties": { "MUNICIPIO": "Corumbá", "ID_ATRATIV": 125, "NOME": "Forte Junqueira", "RANK_PROD4": "Fora do Estudo", "LATITUDE": -18.996635579919602, "LONGITUDE": -57.6362547890377 }, "geometry": { "type": "Point", "coordinates": [ -57.6362547890377, -18.996635579919602 ] } },
{ "type": "Feature", "properties": { "MUNICIPIO": "Corumbá", "ID_ATRATIV": 126, "NOME": "Igreja Nossa Senhora da Candelária", "RANK_PROD4": "Fora do Estudo", "LATITUDE": -18.998659871944501, "LONGITUDE": -57.6508491197254 }, "geometry": { "type": "Point", "coordinates": [ -57.6508491197254, -18.998659871944501 ] } },
{ "type": "Feature", "properties": { "MUNICIPIO": "Corumbá", "ID_ATRATIV": 127, "NOME": "ILA – Instituto Luiz de Albuquerque", "RANK_PROD4": "Fora do Estudo", "LATITUDE": -19.003131053019001, "LONGITUDE": -57.636760430728202 }, "geometry": { "type": "Point", "coordinates": [ -57.636760430728202, -19.003131053019001 ] } },
{ "type": "Feature", "properties": { "MUNICIPIO": "Corumbá", "ID_ATRATIV": 128, "NOME": "Ladeira Cunha e Cruz", "RANK_PROD4": "Fora do Estudo", "LATITUDE": -18.996980314425301, "LONGITUDE": -57.651611119725303 }, "geometry": { "type": "Point", "coordinates": [ -57.651611119725303, -18.996980314425301 ] } },
{ "type": "Feature", "properties": { "MUNICIPIO": "Corumbá", "ID_ATRATIV": 129, "NOME": "Praça da Independência", "RANK_PROD4": "Fora do Estudo", "LATITUDE": -19.000886954680801, "LONGITUDE": -57.653221477397302 }, "geometry": { "type": "Point", "coordinates": [ -57.653221477397302, -19.000886954680801 ] } },
{ "type": "Feature", "properties": { "MUNICIPIO": "Corumbá", "ID_ATRATIV": 130, "NOME": "Santuário Nossa Senhora Auxiliadora", "RANK_PROD4": "Fora do Estudo", "LATITUDE": -19.0019597524463, "LONGITUDE": -57.6530005369208 }, "geometry": { "type": "Point", "coordinates": [ -57.6530005369208, -19.0019597524463 ] } },
{ "type": "Feature", "properties": { "MUNICIPIO": "Corumbá", "ID_ATRATIV": 131, "NOME": "Casa do Artesão", "RANK_PROD4": "Fora do Estudo", "LATITUDE": -18.999973196008, "LONGITUDE": -57.646833073693898 }, "geometry": { "type": "Point", "coordinates": [ -57.646833073693898, -18.999973196008 ] } },
{ "type": "Feature", "properties": { "MUNICIPIO": "Corumbá", "ID_ATRATIV": 132, "NOME": "Casa do Massa Barro", "RANK_PROD4": "Fora do Estudo", "LATITUDE": -18.9988184508993, "LONGITUDE": -57.663902979249002 }, "geometry": { "type": "Point", "coordinates": [ -57.663902979249002, -18.9988184508993 ] } },
{ "type": "Feature", "properties": { "MUNICIPIO": "Corumbá", "ID_ATRATIV": 133, "NOME": "Forte Coimbra", "RANK_PROD4": "Fora do Estudo", "LATITUDE": -19.0078441797701, "LONGITUDE": -57.651646863905 }, "geometry": { "type": "Point", "coordinates": [ -57.651646863905, -19.0078441797701 ] } },
{ "type": "Feature", "properties": { "MUNICIPIO": "Corumbá", "ID_ATRATIV": 134, "NOME": "Capela Nossa Senhora do Carmo", "RANK_PROD4": "Fora do Estudo", "LATITUDE": -19.017942990746299, "LONGITUDE": -57.667103089037298 }, "geometry": { "type": "Point", "coordinates": [ -57.667103089037298, -19.017942990746299 ] } },
{ "type": "Feature", "properties": { "MUNICIPIO": "Corumbá", "ID_ATRATIV": 135, "NOME": "Instituto do Homem Pantaneiro – IHP", "RANK_PROD4": "Fora do Estudo", "LATITUDE": -18.997614815353, "LONGITUDE": -57.655255889037598 }, "geometry": { "type": "Point", "coordinates": [ -57.655255889037598, -18.997614815353 ] } },
{ "type": "Feature", "properties": { "MUNICIPIO": "Corumbá", "ID_ATRATIV": 136, "NOME": "Estrada Parque Pantanal", "RANK_PROD4": "Fora do Estudo", "LATITUDE": -19.221715729860101, "LONGITUDE": -57.460867081605301 }, "geometry": { "type": "Point", "coordinates": [ -57.460867081605301, -19.221715729860101 ] } },
{ "type": "Feature", "properties": { "MUNICIPIO": "Corumbá", "ID_ATRATIV": 137, "NOME": "BR-262", "RANK_PROD4": "Fora do Estudo", "LATITUDE": -19.030107106499699, "LONGITUDE": -57.6186242161533 }, "geometry": { "type": "Point", "coordinates": [ -57.6186242161533, -19.030107106499699 ] } },
{ "type": "Feature", "properties": { "MUNICIPIO": "Corumbá", "ID_ATRATIV": 138, "NOME": "Aeroporto Internacional de Corumbá", "RANK_PROD4": "Fora do Estudo", "LATITUDE": -19.014209785943699, "LONGITUDE": -57.663809737345503 }, "geometry": { "type": "Point", "coordinates": [ -57.663809737345503, -19.014209785943699 ] } },
{ "type": "Feature", "properties": { "MUNICIPIO": "Corumbá", "ID_ATRATIV": 139, "NOME": "Porto Geral de Corumbá", "RANK_PROD4": "Fora do Estudo", "LATITUDE": -19.013724414982001, "LONGITUDE": -57.663800456697402 }, "geometry": { "type": "Point", "coordinates": [ -57.663800456697402, -19.013724414982001 ] } },
{ "type": "Feature", "properties": { "MUNICIPIO": "Dionício Cerqueira", "ID_ATRATIV": 140, "NOME": "BR - 163", "RANK_PROD4": "Acesso / Infraestrutura", "LATITUDE": -26.252457771274901, "LONGITUDE": -53.635154292103202 }, "geometry": { "type": "Point", "coordinates": [ -53.635154292103202, -26.252457771274901 ] } },
{ "type": "Feature", "properties": { "MUNICIPIO": "Dionísio Cerqueira", "ID_ATRATIV": 141, "NOME": "Cânion do Assentamento", "RANK_PROD4": "Secundário / Complementar", "LATITUDE": -26.274702936321699, "LONGITUDE": -53.374763968800103 }, "geometry": { "type": "Point", "coordinates": [ -53.374763968800103, -26.274702936321699 ] } },
{ "type": "Feature", "properties": { "MUNICIPIO": "Dionísio Cerqueira", "ID_ATRATIV": 142, "NOME": "Cachoeira do Toldo", "RANK_PROD4": "5º", "LATITUDE": -26.303523848369601, "LONGITUDE": -53.617434977800499 }, "geometry": { "type": "Point", "coordinates": [ -53.617434977800499, -26.303523848369601 ] } },
{ "type": "Feature", "properties": { "MUNICIPIO": "Dionísio Cerqueira", "ID_ATRATIV": 143, "NOME": "Praça Professor Dalilo Quintino Pereira", "RANK_PROD4": "Secundário / Complementar", "LATITUDE": -26.253832467956201, "LONGITUDE": -53.640509601886102 }, "geometry": { "type": "Point", "coordinates": [ -53.640509601886102, -26.253832467956201 ] } },
{ "type": "Feature", "properties": { "MUNICIPIO": "Dionísio Cerqueira", "ID_ATRATIV": 144, "NOME": "Aeroporto de Dionísio Cerqueira - SND6", "RANK_PROD4": "Acesso / Infraestrutura", "LATITUDE": -26.287446615615199, "LONGITUDE": -53.631927003181197 }, "geometry": { "type": "Point", "coordinates": [ -53.631927003181197, -26.287446615615199 ] } },
{ "type": "Feature", "properties": { "MUNICIPIO": "Foz do Iguaçu", "ID_ATRATIV": 145, "NOME": "Adrena Kart Kartódromo", "RANK_PROD4": "Secundário / Complementar", "LATITUDE": -25.556195631962002, "LONGITUDE": -54.567683432039097 }, "geometry": { "type": "Point", "coordinates": [ -54.567683432039097, -25.556195631962002 ] } },
{ "type": "Feature", "properties": { "MUNICIPIO": "Foz do Iguaçu", "ID_ATRATIV": 146, "NOME": "Aguaray Eco", "RANK_PROD4": "Secundário / Complementar", "LATITUDE": -25.5974976645001, "LONGITUDE": -54.528026070669398 }, "geometry": { "type": "Point", "coordinates": [ -54.528026070669398, -25.5974976645001 ] } },
{ "type": "Feature", "properties": { "MUNICIPIO": "Foz do Iguaçu", "ID_ATRATIV": 147, "NOME": "AquaFoz", "RANK_PROD4": "Secundário / Complementar", "LATITUDE": -25.614131369739798, "LONGITUDE": -54.4804620710579 }, "geometry": { "type": "Point", "coordinates": [ -54.4804620710579, -25.614131369739798 ] } },
{ "type": "Feature", "properties": { "MUNICIPIO": "Foz do Iguaçu", "ID_ATRATIV": 148, "NOME": "Aquamania", "RANK_PROD4": "Secundário / Complementar", "LATITUDE": -25.5824012517886, "LONGITUDE": -54.527748259025302 }, "geometry": { "type": "Point", "coordinates": [ -54.527748259025302, -25.5824012517886 ] } },
{ "type": "Feature", "properties": { "MUNICIPIO": "Foz do Iguaçu", "ID_ATRATIV": 149, "NOME": "Bike Poço Preto", "RANK_PROD4": "Secundário / Complementar", "LATITUDE": -25.6133, "LONGITUDE": -54.4812 }, "geometry": { "type": "Point", "coordinates": [ -54.4812, -25.6133 ] } },
{ "type": "Feature", "properties": { "MUNICIPIO": "Foz do Iguaçu", "ID_ATRATIV": 150, "NOME": "Blue Park", "RANK_PROD4": "Secundário / Complementar", "LATITUDE": -25.566221090776601, "LONGITUDE": -54.553788029637502 }, "geometry": { "type": "Point", "coordinates": [ -54.553788029637502, -25.566221090776601 ] } },
{ "type": "Feature", "properties": { "MUNICIPIO": "Foz do Iguaçu", "ID_ATRATIV": 151, "NOME": "Cataratas del Iguazú – Arg.", "RANK_PROD4": "1º", "LATITUDE": -25.665739762325199, "LONGITUDE": -54.450301549352901 }, "geometry": { "type": "Point", "coordinates": [ -54.450301549352901, -25.665739762325199 ] } },
{ "type": "Feature", "properties": { "MUNICIPIO": "Foz do Iguaçu", "ID_ATRATIV": 152, "NOME": "Cataratas do Iguaçu – Brasil", "RANK_PROD4": "1º", "LATITUDE": -25.680717602168599, "LONGITUDE": -54.437352859441098 }, "geometry": { "type": "Point", "coordinates": [ -54.437352859441098, -25.680717602168599 ] } },
{ "type": "Feature", "properties": { "MUNICIPIO": "Foz do Iguaçu", "ID_ATRATIV": 153, "NOME": "Dreams Park Show", "RANK_PROD4": "Secundário / Complementar", "LATITUDE": -25.5898628224964, "LONGITUDE": -54.517035376729801 }, "geometry": { "type": "Point", "coordinates": [ -54.517035376729801, -25.5898628224964 ] } },
{ "type": "Feature", "properties": { "MUNICIPIO": "Foz do Iguaçu", "ID_ATRATIV": 154, "NOME": "Falls Bike Tour", "RANK_PROD4": "Secundário / Complementar", "LATITUDE": -25.556526529111899, "LONGITUDE": -54.573060551850602 }, "geometry": { "type": "Point", "coordinates": [ -54.573060551850602, -25.556526529111899 ] } },
{ "type": "Feature", "properties": { "MUNICIPIO": "Foz do Iguaçu", "ID_ATRATIV": 155, "NOME": "Fly Foz – Paraquedismo", "RANK_PROD4": "Secundário / Complementar", "LATITUDE": -25.460489353392202, "LONGITUDE": -54.596772160877599 }, "geometry": { "type": "Point", "coordinates": [ -54.596772160877599, -25.460489353392202 ] } },
{ "type": "Feature", "properties": { "MUNICIPIO": "Foz do Iguaçu", "ID_ATRATIV": 156, "NOME": "Helisul Experience – Cataratas", "RANK_PROD4": "1º", "LATITUDE": -25.6126977621796, "LONGITUDE": -54.481560960872997 }, "geometry": { "type": "Point", "coordinates": [ -54.481560960872997, -25.6126977621796 ] } },
{ "type": "Feature", "properties": { "MUNICIPIO": "Foz do Iguaçu", "ID_ATRATIV": 157, "NOME": "Helisul Experience – Itaipu", "RANK_PROD4": "3º", "LATITUDE": -25.612620365470299, "LONGITUDE": -54.481163993958603 }, "geometry": { "type": "Point", "coordinates": [ -54.481163993958603, -25.612620365470299 ] } },
{ "type": "Feature", "properties": { "MUNICIPIO": "Foz do Iguaçu", "ID_ATRATIV": 158, "NOME": "Iguassu by Bike", "RANK_PROD4": "Secundário / Complementar", "LATITUDE": -25.613990183724301, "LONGITUDE": -54.481615589708497 }, "geometry": { "type": "Point", "coordinates": [ -54.481615589708497, -25.613990183724301 ] } },
{ "type": "Feature", "properties": { "MUNICIPIO": "Foz do Iguaçu", "ID_ATRATIV": 159, "NOME": "Itaipu Iluminada", "RANK_PROD4": "3º", "LATITUDE": -25.4467837820795, "LONGITUDE": -54.584004889713498 }, "geometry": { "type": "Point", "coordinates": [ -54.584004889713498, -25.4467837820795 ] } },
{ "type": "Feature", "properties": { "MUNICIPIO": "Foz do Iguaçu", "ID_ATRATIV": 160, "NOME": "Itaipu Panorâmica", "RANK_PROD4": "3º", "LATITUDE": -25.4467550061132, "LONGITUDE": -54.583918689713599 }, "geometry": { "type": "Point", "coordinates": [ -54.583918689713599, -25.4467550061132 ] } },
{ "type": "Feature", "properties": { "MUNICIPIO": "Foz do Iguaçu", "ID_ATRATIV": 161, "NOME": "Itaipu Refúgio Biológico", "RANK_PROD4": "3º", "LATITUDE": -25.4468007700637, "LONGITUDE": -54.583937157180699 }, "geometry": { "type": "Point", "coordinates": [ -54.583937157180699, -25.4468007700637 ] } },
{ "type": "Feature", "properties": { "MUNICIPIO": "Foz do Iguaçu", "ID_ATRATIV": 162, "NOME": "Kattamaram", "RANK_PROD4": "Secundário / Complementar", "LATITUDE": -25.4331438695461, "LONGITUDE": -54.558660809215397 }, "geometry": { "type": "Point", "coordinates": [ -54.558660809215397, -25.4331438695461 ] } },
{ "type": "Feature", "properties": { "MUNICIPIO": "Foz do Iguaçu", "ID_ATRATIV": 163, "NOME": "Macuco Safari", "RANK_PROD4": "5º", "LATITUDE": -25.651049662147901, "LONGITUDE": -54.438061174365103 }, "geometry": { "type": "Point", "coordinates": [ -54.438061174365103, -25.651049662147901 ] } },
{ "type": "Feature", "properties": { "MUNICIPIO": "Foz do Iguaçu", "ID_ATRATIV": 164, "NOME": "Marco das Três Fronteiras", "RANK_PROD4": "4º", "LATITUDE": -25.589926737776501, "LONGITUDE": -54.590239632038298 }, "geometry": { "type": "Point", "coordinates": [ -54.590239632038298, -25.589926737776501 ] } },
{ "type": "Feature", "properties": { "MUNICIPIO": "Foz do Iguaçu", "ID_ATRATIV": 165, "NOME": "Mesquita Omar Ibn Al-Khattab", "RANK_PROD4": "Secundário / Complementar", "LATITUDE": -25.520306396052799, "LONGITUDE": -54.578582874369097 }, "geometry": { "type": "Point", "coordinates": [ -54.578582874369097, -25.520306396052799 ] } },
{ "type": "Feature", "properties": { "MUNICIPIO": "Foz do Iguaçu", "ID_ATRATIV": 166, "NOME": "Parque das Aves", "RANK_PROD4": "2º", "LATITUDE": -25.613719613052702, "LONGITUDE": -54.482554974366302 }, "geometry": { "type": "Point", "coordinates": [ -54.482554974366302, -25.613719613052702 ] } },
{ "type": "Feature", "properties": { "MUNICIPIO": "Foz do Iguaçu", "ID_ATRATIV": 167, "NOME": "Pôr do Sol nas Cataratas", "RANK_PROD4": "1º", "LATITUDE": -25.493235240325401, "LONGITUDE": -54.591989486014803 }, "geometry": { "type": "Point", "coordinates": [ -54.591989486014803, -25.493235240325401 ] } },
{ "type": "Feature", "properties": { "MUNICIPIO": "Foz do Iguaçu", "ID_ATRATIV": 168, "NOME": "Templo Budista Chen Tien", "RANK_PROD4": "Secundário / Complementar", "LATITUDE": -25.4743844342876, "LONGITUDE": -54.599011547936399 }, "geometry": { "type": "Point", "coordinates": [ -54.599011547936399, -25.4743844342876 ] } },
{ "type": "Feature", "properties": { "MUNICIPIO": "Foz do Iguaçu", "ID_ATRATIV": 169, "NOME": "Turismo Itaipu", "RANK_PROD4": "3º", "LATITUDE": -25.446727766256799, "LONGITUDE": -54.584163299233197 }, "geometry": { "type": "Point", "coordinates": [ -54.584163299233197, -25.446727766256799 ] } },
{ "type": "Feature", "properties": { "MUNICIPIO": "Foz do Iguaçu", "ID_ATRATIV": 170, "NOME": "Wonder Park Foz", "RANK_PROD4": "Secundário / Complementar", "LATITUDE": -25.608839605734701, "LONGITUDE": -54.488979216695498 }, "geometry": { "type": "Point", "coordinates": [ -54.488979216695498, -25.608839605734701 ] } },
{ "type": "Feature", "properties": { "MUNICIPIO": "Foz do Iguaçu", "ID_ATRATIV": 171, "NOME": "Yup Star – Roda Gigante", "RANK_PROD4": "Secundário / Complementar", "LATITUDE": -25.586507260086702, "LONGITUDE": -54.588183426492201 }, "geometry": { "type": "Point", "coordinates": [ -54.588183426492201, -25.586507260086702 ] } },
{ "type": "Feature", "properties": { "MUNICIPIO": "Foz do Iguaçu", "ID_ATRATIV": 172, "NOME": "Catedral", "RANK_PROD4": "Secundário / Complementar", "LATITUDE": -25.497349519061402, "LONGITUDE": -54.5734058742622 }, "geometry": { "type": "Point", "coordinates": [ -54.5734058742622, -25.497349519061402 ] } },
{ "type": "Feature", "properties": { "MUNICIPIO": "Foz do Iguaçu", "ID_ATRATIV": 173, "NOME": "Centro Comercial - Paraguai", "RANK_PROD4": "Secundário / Complementar", "LATITUDE": -25.509377190231898, "LONGITUDE": -54.607232124992002 }, "geometry": { "type": "Point", "coordinates": [ -54.607232124992002, -25.509377190231898 ] } },
{ "type": "Feature", "properties": { "MUNICIPIO": "Foz do Iguaçu", "ID_ATRATIV": 174, "NOME": "Museu El Mensú - Paraguai", "RANK_PROD4": "Secundário / Complementar", "LATITUDE": -25.513062320680199, "LONGITUDE": -54.614517101243798 }, "geometry": { "type": "Point", "coordinates": [ -54.614517101243798, -25.513062320680199 ] } },
{ "type": "Feature", "properties": { "MUNICIPIO": "Foz do Iguaçu", "ID_ATRATIV": 175, "NOME": "Salto Monday - Paraguai", "RANK_PROD4": "Secundário / Complementar", "LATITUDE": -25.559241261852101, "LONGITUDE": -54.631532474260702 }, "geometry": { "type": "Point", "coordinates": [ -54.631532474260702, -25.559241261852101 ] } },
{ "type": "Feature", "properties": { "MUNICIPIO": "Foz do Iguaçu", "ID_ATRATIV": 176, "NOME": "Duty Free - Argentina", "RANK_PROD4": "Secundário / Complementar", "LATITUDE": -25.599261518110499, "LONGITUDE": -54.563949831932398 }, "geometry": { "type": "Point", "coordinates": [ -54.563949831932398, -25.599261518110499 ] } },
{ "type": "Feature", "properties": { "MUNICIPIO": "Foz do Iguaçu", "ID_ATRATIV": 177, "NOME": "Marco das 3 fronteiras (Argentina)", "RANK_PROD4": "4º", "LATITUDE": -25.594705588984201, "LONGITUDE": -54.590752316587199 }, "geometry": { "type": "Point", "coordinates": [ -54.590752316587199, -25.594705588984201 ] } },
{ "type": "Feature", "properties": { "MUNICIPIO": "Foz do Iguaçu", "ID_ATRATIV": 178, "NOME": "Cataratas (Argentina)", "RANK_PROD4": "1º", "LATITUDE": -25.676832865467301, "LONGITUDE": -54.4555185850584 }, "geometry": { "type": "Point", "coordinates": [ -54.4555185850584, -25.676832865467301 ] } },
{ "type": "Feature", "properties": { "MUNICIPIO": "Foz do Iguaçu", "ID_ATRATIV": 179, "NOME": "Feirinha da Argentina", "RANK_PROD4": "Secundário / Complementar", "LATITUDE": -25.593900368629999, "LONGITUDE": -54.573899474259797 }, "geometry": { "type": "Point", "coordinates": [ -54.573899474259797, -25.593900368629999 ] } },
{ "type": "Feature", "properties": { "MUNICIPIO": "Foz do Iguaçu", "ID_ATRATIV": 180, "NOME": "Feira do centro da cidade - Argentina", "RANK_PROD4": "Secundário / Complementar", "LATITUDE": -25.596274498807201, "LONGITUDE": -54.574799815345401 }, "geometry": { "type": "Point", "coordinates": [ -54.574799815345401, -25.596274498807201 ] } },
{ "type": "Feature", "properties": { "MUNICIPIO": "Foz do Iguaçu", "ID_ATRATIV": 181, "NOME": "BR - 277", "RANK_PROD4": "Acesso / Infraestrutura", "LATITUDE": -25.4923141836294, "LONGITUDE": -54.514795317453597 }, "geometry": { "type": "Point", "coordinates": [ -54.514795317453597, -25.4923141836294 ] } },
{ "type": "Feature", "properties": { "MUNICIPIO": "Foz do Iguaçu", "ID_ATRATIV": 182, "NOME": "Aeroporto Internacional de Foz do Iguaçu/Cataratas", "RANK_PROD4": "1º", "LATITUDE": -25.597750450067501, "LONGITUDE": -54.488521932037798 }, "geometry": { "type": "Point", "coordinates": [ -54.488521932037798, -25.597750450067501 ] } },
{ "type": "Feature", "properties": { "MUNICIPIO": "Guaíra", "ID_ATRATIV": 183, "NOME": "Mirante com vista para o Rio Paraná", "RANK_PROD4": "2º", "LATITUDE": -25.293578737481599, "LONGITUDE": -54.586636047951302 }, "geometry": { "type": "Point", "coordinates": [ -54.586636047951302, -25.293578737481599 ] } },
{ "type": "Feature", "properties": { "MUNICIPIO": "Guaíra", "ID_ATRATIV": 184, "NOME": "Parque Nacional de Ilha Grande", "RANK_PROD4": "1º", "LATITUDE": -23.709190853018001, "LONGITUDE": -54.024548695381696 }, "geometry": { "type": "Point", "coordinates": [ -54.024548695381696, -23.709190853018001 ] } },
{ "type": "Feature", "properties": { "MUNICIPIO": "Guaíra", "ID_ATRATIV": 185, "NOME": "Centro Náutico Recreativo (Marinas)", "RANK_PROD4": "Secundário / Complementar", "LATITUDE": -24.079134073734298, "LONGITUDE": -54.261987616740903 }, "geometry": { "type": "Point", "coordinates": [ -54.261987616740903, -24.079134073734298 ] } },
{ "type": "Feature", "properties": { "MUNICIPIO": "Guaíra", "ID_ATRATIV": 186, "NOME": "Lagoa Saraiva", "RANK_PROD4": "Secundário / Complementar", "LATITUDE": -24.017054579298101, "LONGITUDE": -54.175858145578196 }, "geometry": { "type": "Point", "coordinates": [ -54.175858145578196, -24.017054579298101 ] } },
{ "type": "Feature", "properties": { "MUNICIPIO": "Guaíra", "ID_ATRATIV": 187, "NOME": "Igreja Nossa Senhora dos Navegantes", "RANK_PROD4": "3º", "LATITUDE": -23.951504278472701, "LONGITUDE": -54.246165784162699 }, "geometry": { "type": "Point", "coordinates": [ -54.246165784162699, -23.951504278472701 ] } },
{ "type": "Feature", "properties": { "MUNICIPIO": "Guaíra", "ID_ATRATIV": 188, "NOME": "Kartódromo Ayrton Senna", "RANK_PROD4": "5º", "LATITUDE": -23.960255522722701, "LONGITUDE": -54.246201674620202 }, "geometry": { "type": "Point", "coordinates": [ -54.246201674620202, -23.960255522722701 ] } },
{ "type": "Feature", "properties": { "MUNICIPIO": "Guaíra", "ID_ATRATIV": 189, "NOME": "Trilha Marinas", "RANK_PROD4": "Secundário / Complementar", "LATITUDE": -24.079091499834298, "LONGITUDE": -54.262147014615898 }, "geometry": { "type": "Point", "coordinates": [ -54.262147014615898, -24.079091499834298 ] } },
{ "type": "Feature", "properties": { "MUNICIPIO": "Guaíra", "ID_ATRATIV": 190, "NOME": "Estação Motorhome", "RANK_PROD4": "Secundário / Complementar", "LATITUDE": -24.0792614118279, "LONGITUDE": -54.261150767570001 }, "geometry": { "type": "Point", "coordinates": [ -54.261150767570001, -24.0792614118279 ] } },
{ "type": "Feature", "properties": { "MUNICIPIO": "Guaíra", "ID_ATRATIV": 191, "NOME": "Praça do Japão Mitsuaki Shiomi", "RANK_PROD4": "Secundário / Complementar", "LATITUDE": -24.090603425160399, "LONGITUDE": -54.255918703247097 }, "geometry": { "type": "Point", "coordinates": [ -54.255918703247097, -24.090603425160399 ] } },
{ "type": "Feature", "properties": { "MUNICIPIO": "Guaíra", "ID_ATRATIV": 192, "NOME": "Cine Teatro  Sete Quedas", "RANK_PROD4": "4º", "LATITUDE": -24.0771385799275, "LONGITUDE": -54.257984274412003 }, "geometry": { "type": "Point", "coordinates": [ -54.257984274412003, -24.0771385799275 ] } },
{ "type": "Feature", "properties": { "MUNICIPIO": "Guaíra", "ID_ATRATIV": 193, "NOME": "Cruzeiro das Américas", "RANK_PROD4": "Secundário / Complementar", "LATITUDE": -24.079143868976701, "LONGITUDE": -54.2619232437278 }, "geometry": { "type": "Point", "coordinates": [ -54.2619232437278, -24.079143868976701 ] } },
{ "type": "Feature", "properties": { "MUNICIPIO": "Guaíra", "ID_ATRATIV": 194, "NOME": "Praia do Sol", "RANK_PROD4": "Secundário / Complementar", "LATITUDE": -24.078996940261302, "LONGITUDE": -54.262030532083003 }, "geometry": { "type": "Point", "coordinates": [ -54.262030532083003, -24.078996940261302 ] } },
{ "type": "Feature", "properties": { "MUNICIPIO": "Guaíra", "ID_ATRATIV": 195, "NOME": "Museu Sete Quedas", "RANK_PROD4": "4º", "LATITUDE": -24.0792, "LONGITUDE": -54.2612 }, "geometry": { "type": "Point", "coordinates": [ -54.2612, -24.0792 ] } },
{ "type": "Feature", "properties": { "MUNICIPIO": "Guaíra", "ID_ATRATIV": 196, "NOME": "Vila Velha", "RANK_PROD4": "Secundário / Complementar", "LATITUDE": -24.080884486221098, "LONGITUDE": -54.258942918589497 }, "geometry": { "type": "Point", "coordinates": [ -54.258942918589497, -24.080884486221098 ] } },
{ "type": "Feature", "properties": { "MUNICIPIO": "Guaíra", "ID_ATRATIV": 197, "NOME": "Locomotiva nº 04", "RANK_PROD4": "Secundário / Complementar", "LATITUDE": -24.077400522168599, "LONGITUDE": -54.256760274412002 }, "geometry": { "type": "Point", "coordinates": [ -54.256760274412002, -24.077400522168599 ] } },
{ "type": "Feature", "properties": { "MUNICIPIO": "Guaíra", "ID_ATRATIV": 198, "NOME": "Ponte Ayrton Senna", "RANK_PROD4": "5º", "LATITUDE": -24.0569680583842, "LONGITUDE": -54.259383645577003 }, "geometry": { "type": "Point", "coordinates": [ -54.259383645577003, -24.0569680583842 ] } },
{ "type": "Feature", "properties": { "MUNICIPIO": "Guaíra", "ID_ATRATIV": 199, "NOME": "Feira do Produtor", "RANK_PROD4": "Secundário / Complementar", "LATITUDE": -24.085413283325799, "LONGITUDE": -54.249897574411598 }, "geometry": { "type": "Point", "coordinates": [ -54.249897574411598, -24.085413283325799 ] } },
{ "type": "Feature", "properties": { "MUNICIPIO": "Guaíra", "ID_ATRATIV": 200, "NOME": "Rio Paraná", "RANK_PROD4": "2º", "LATITUDE": -24.0856380380568, "LONGITUDE": -54.282630936462397 }, "geometry": { "type": "Point", "coordinates": [ -54.282630936462397, -24.0856380380568 ] } },
{ "type": "Feature", "properties": { "MUNICIPIO": "Guaíra", "ID_ATRATIV": 201, "NOME": "Igreja Nuestro Señor Del Perdón", "RANK_PROD4": "3º", "LATITUDE": -24.0792613595865, "LONGITUDE": -54.258518084207999 }, "geometry": { "type": "Point", "coordinates": [ -54.258518084207999, -24.0792613595865 ] } },
{ "type": "Feature", "properties": { "MUNICIPIO": "Guaíra", "ID_ATRATIV": 202, "NOME": "Maracaju dos Gaúchos", "RANK_PROD4": "Secundário / Complementar", "LATITUDE": -24.2018117473838, "LONGITUDE": -54.200308138177903 }, "geometry": { "type": "Point", "coordinates": [ -54.200308138177903, -24.2018117473838 ] } },
{ "type": "Feature", "properties": { "MUNICIPIO": "Guaíra", "ID_ATRATIV": 203, "NOME": "Feira do Artesão", "RANK_PROD4": "Secundário / Complementar", "LATITUDE": -20.3128361750483, "LONGITUDE": -48.2880402154085 }, "geometry": { "type": "Point", "coordinates": [ -48.2880402154085, -20.3128361750483 ] } },
{ "type": "Feature", "properties": { "MUNICIPIO": "Guaíra", "ID_ATRATIV": 204, "NOME": "Ilha São Francisco", "RANK_PROD4": "1º", "LATITUDE": -24.0672616130541, "LONGITUDE": -54.255172670438597 }, "geometry": { "type": "Point", "coordinates": [ -54.255172670438597, -24.0672616130541 ] } },
{ "type": "Feature", "properties": { "MUNICIPIO": "Guaíra", "ID_ATRATIV": 205, "NOME": "Portal Turístico", "RANK_PROD4": "Acesso / Infraestrutura", "LATITUDE": -24.075132949763901, "LONGITUDE": -54.242175109346199 }, "geometry": { "type": "Point", "coordinates": [ -54.242175109346199, -24.075132949763901 ] } },
{ "type": "Feature", "properties": { "MUNICIPIO": "Guaíra", "ID_ATRATIV": 206, "NOME": "Parque do Lago - Rogério Manuel Gonçalvez", "RANK_PROD4": "1º", "LATITUDE": -24.087626197550101, "LONGITUDE": -54.242591207497199 }, "geometry": { "type": "Point", "coordinates": [ -54.242591207497199, -24.087626197550101 ] } },
{ "type": "Feature", "properties": { "MUNICIPIO": "Guaíra", "ID_ATRATIV": 207, "NOME": "Atelíê do Frei Pacífico", "RANK_PROD4": "Secundário / Complementar", "LATITUDE": -24.080311156089898, "LONGITUDE": -54.247936381063198 }, "geometry": { "type": "Point", "coordinates": [ -54.247936381063198, -24.080311156089898 ] } },
{ "type": "Feature", "properties": { "MUNICIPIO": "Guaíra", "ID_ATRATIV": 208, "NOME": "BR - 163", "RANK_PROD4": "Acesso / Infraestrutura", "LATITUDE": -24.085010690494499, "LONGITUDE": -54.243613052849497 }, "geometry": { "type": "Point", "coordinates": [ -54.243613052849497, -24.085010690494499 ] } },
{ "type": "Feature", "properties": { "MUNICIPIO": "Guaíra", "ID_ATRATIV": 209, "NOME": "BR - 272", "RANK_PROD4": "Acesso / Infraestrutura", "LATITUDE": -24.105554895570901, "LONGITUDE": -54.263160364130599 }, "geometry": { "type": "Point", "coordinates": [ -54.263160364130599, -24.105554895570901 ] } },
{ "type": "Feature", "properties": { "MUNICIPIO": "Guaíra", "ID_ATRATIV": 210, "NOME": "Aeroporto Municipal Walter Martins de Oliveira", "RANK_PROD4": "Acesso / Infraestrutura", "LATITUDE": -24.080182473603799, "LONGITUDE": -54.187486545576398 }, "geometry": { "type": "Point", "coordinates": [ -54.187486545576398, -24.080182473603799 ] } },
{ "type": "Feature", "properties": { "MUNICIPIO": "Guaíra", "ID_ATRATIV": 211, "NOME": "Porto de Guaíra", "RANK_PROD4": "Secundário / Complementar", "LATITUDE": -24.069839306685999, "LONGITUDE": -54.2413358312157 }, "geometry": { "type": "Point", "coordinates": [ -54.2413358312157, -24.069839306685999 ] } },
{ "type": "Feature", "properties": { "MUNICIPIO": "Medianeira", "ID_ATRATIV": 212, "NOME": "Sítio da Marlene", "RANK_PROD4": "5º", "LATITUDE": -25.317283112033898, "LONGITUDE": -54.021845918552998 }, "geometry": { "type": "Point", "coordinates": [ -54.021845918552998, -25.317283112033898 ] } },
{ "type": "Feature", "properties": { "MUNICIPIO": "Medianeira", "ID_ATRATIV": 213, "NOME": "Sítio do Beto", "RANK_PROD4": "5º", "LATITUDE": -25.315209217020801, "LONGITUDE": -54.034659696475401 }, "geometry": { "type": "Point", "coordinates": [ -54.034659696475401, -25.315209217020801 ] } },
{ "type": "Feature", "properties": { "MUNICIPIO": "Medianeira", "ID_ATRATIV": 214, "NOME": "Recanto Olivo", "RANK_PROD4": "5º", "LATITUDE": -25.235213098873999, "LONGITUDE": -54.066261286022403 }, "geometry": { "type": "Point", "coordinates": [ -54.066261286022403, -25.235213098873999 ] } },
{ "type": "Feature", "properties": { "MUNICIPIO": "Medianeira", "ID_ATRATIV": 215, "NOME": "Recanto Ilha do Sol", "RANK_PROD4": "5º", "LATITUDE": -25.3048795918431, "LONGITUDE": -54.102691645539998 }, "geometry": { "type": "Point", "coordinates": [ -54.102691645539998, -25.3048795918431 ] } },
{ "type": "Feature", "properties": { "MUNICIPIO": "Medianeira", "ID_ATRATIV": 216, "NOME": "Cachoeira da Maralúcia", "RANK_PROD4": "5º", "LATITUDE": -25.189855041171501, "LONGITUDE": -54.040231535577803 }, "geometry": { "type": "Point", "coordinates": [ -54.040231535577803, -25.189855041171501 ] } },
{ "type": "Feature", "properties": { "MUNICIPIO": "Medianeira", "ID_ATRATIV": 217, "NOME": "Circuito Medianeira Rural", "RANK_PROD4": "5º", "LATITUDE": -25.295438912299101, "LONGITUDE": -54.088269782631102 }, "geometry": { "type": "Point", "coordinates": [ -54.088269782631102, -25.295438912299101 ] } },
{ "type": "Feature", "properties": { "MUNICIPIO": "Medianeira", "ID_ATRATIV": 218, "NOME": "Espigão do Norte", "RANK_PROD4": "Secundário / Complementar", "LATITUDE": -25.199698968819501, "LONGITUDE": -54.068591570654498 }, "geometry": { "type": "Point", "coordinates": [ -54.068591570654498, -25.199698968819501 ] } },
{ "type": "Feature", "properties": { "MUNICIPIO": "Medianeira", "ID_ATRATIV": 219, "NOME": "Morro da Salete", "RANK_PROD4": "1º", "LATITUDE": -25.2967184776127, "LONGITUDE": -54.037361530198297 }, "geometry": { "type": "Point", "coordinates": [ -54.037361530198297, -25.2967184776127 ] } },
{ "type": "Feature", "properties": { "MUNICIPIO": "Medianeira", "ID_ATRATIV": 220, "NOME": "Rota da fé", "RANK_PROD4": "Acesso / Infraestrutura", "LATITUDE": -25.229686259670402, "LONGITUDE": -54.073264418555702 }, "geometry": { "type": "Point", "coordinates": [ -54.073264418555702, -25.229686259670402 ] } },
{ "type": "Feature", "properties": { "MUNICIPIO": "Medianeira", "ID_ATRATIV": 221, "NOME": "BR - 277", "RANK_PROD4": "Acesso / Infraestrutura", "LATITUDE": -25.2869497001778, "LONGITUDE": -54.095679307594402 }, "geometry": { "type": "Point", "coordinates": [ -54.095679307594402, -25.2869497001778 ] } },
{ "type": "Feature", "properties": { "MUNICIPIO": "Medianeira", "ID_ATRATIV": 222, "NOME": "BR - 495", "RANK_PROD4": "Acesso / Infraestrutura", "LATITUDE": -25.2871396887538, "LONGITUDE": -54.095679307594402 }, "geometry": { "type": "Point", "coordinates": [ -54.095679307594402, -25.2871396887538 ] } },
{ "type": "Feature", "properties": { "MUNICIPIO": "Medianeira", "ID_ATRATIV": 223, "NOME": "Aeroporto Municipal Medianeira (SSMD)", "RANK_PROD4": "4º", "LATITUDE": -25.308899638083201, "LONGITUDE": -54.0751403583292 }, "geometry": { "type": "Point", "coordinates": [ -54.0751403583292, -25.308899638083201 ] } },
{ "type": "Feature", "properties": { "MUNICIPIO": "Mundo Novo", "ID_ATRATIV": 224, "NOME": "Biblioterca Municipal", "RANK_PROD4": "5º", "LATITUDE": -23.937317852654001, "LONGITUDE": -54.289676021604301 }, "geometry": { "type": "Point", "coordinates": [ -54.289676021604301, -23.937317852654001 ] } },
{ "type": "Feature", "properties": { "MUNICIPIO": "Mundo Novo", "ID_ATRATIV": 225, "NOME": "Museu Tapuy Porã", "RANK_PROD4": "5º", "LATITUDE": -23.939326766668898, "LONGITUDE": -54.294131247429 }, "geometry": { "type": "Point", "coordinates": [ -54.294131247429, -23.939326766668898 ] } },
{ "type": "Feature", "properties": { "MUNICIPIO": "Mundo Novo", "ID_ATRATIV": 226, "NOME": "Ponte Ayrton Senna", "RANK_PROD4": "3º", "LATITUDE": -23.939326766668898, "LONGITUDE": -54.2939703148961 }, "geometry": { "type": "Point", "coordinates": [ -54.2939703148961, -23.939326766668898 ] } },
{ "type": "Feature", "properties": { "MUNICIPIO": "Mundo Novo", "ID_ATRATIV": 227, "NOME": "Porto Isabel", "RANK_PROD4": "2º", "LATITUDE": -23.941454364320801, "LONGITUDE": -54.2153026198189 }, "geometry": { "type": "Point", "coordinates": [ -54.2153026198189, -23.941454364320801 ] } },
{ "type": "Feature", "properties": { "MUNICIPIO": "Mundo Novo", "ID_ATRATIV": 228, "NOME": "Prainha do Cascalho", "RANK_PROD4": "1º", "LATITUDE": -24.041285338202599, "LONGITUDE": -54.234689457851601 }, "geometry": { "type": "Point", "coordinates": [ -54.234689457851601, -24.041285338202599 ] } },
{ "type": "Feature", "properties": { "MUNICIPIO": "Mundo Novo", "ID_ATRATIV": 229, "NOME": "Prainha do Sol", "RANK_PROD4": "1º", "LATITUDE": -24.001278953839599, "LONGITUDE": -54.181673874414201 }, "geometry": { "type": "Point", "coordinates": [ -54.181673874414201, -24.001278953839599 ] } },
{ "type": "Feature", "properties": { "MUNICIPIO": "Mundo Novo", "ID_ATRATIV": 230, "NOME": "BR- 163", "RANK_PROD4": "Acesso / Infraestrutura", "LATITUDE": -23.934994940046099, "LONGITUDE": -54.2814757410002 }, "geometry": { "type": "Point", "coordinates": [ -54.2814757410002, -23.934994940046099 ] } },
{ "type": "Feature", "properties": { "MUNICIPIO": "Mundo Novo", "ID_ATRATIV": 231, "NOME": "Porto Isabel", "RANK_PROD4": "2º", "LATITUDE": -23.998019068077198, "LONGITUDE": -54.200521300048699 }, "geometry": { "type": "Point", "coordinates": [ -54.200521300048699, -23.998019068077198 ] } },
{ "type": "Feature", "properties": { "MUNICIPIO": "Ponta pora", "ID_ATRATIV": 232, "NOME": "Estação Ferroviária Noroeste Do Brasil - Ramal De Ponta Porã", "RANK_PROD4": "Fora do Estudo", "LATITUDE": -22.5237620119402, "LONGITUDE": -55.733694335701003 }, "geometry": { "type": "Point", "coordinates": [ -55.733694335701003, -22.5237620119402 ] } },
{ "type": "Feature", "properties": { "MUNICIPIO": "Ponta Porã", "ID_ATRATIV": 233, "NOME": "MS - 164", "RANK_PROD4": "Fora do Estudo", "LATITUDE": -22.474003452086102, "LONGITUDE": -55.750199156876697 }, "geometry": { "type": "Point", "coordinates": [ -55.750199156876697, -22.474003452086102 ] } },
{ "type": "Feature", "properties": { "MUNICIPIO": "Ponta Porã", "ID_ATRATIV": 234, "NOME": "BR - 463", "RANK_PROD4": "Fora do Estudo", "LATITUDE": -22.582895872013101, "LONGITUDE": -55.685406880417801 }, "geometry": { "type": "Point", "coordinates": [ -55.685406880417801, -22.582895872013101 ] } },
{ "type": "Feature", "properties": { "MUNICIPIO": "Ponta Porã", "ID_ATRATIV": 235, "NOME": "Aeroporto Internacional de Ponta Porã - PMG", "RANK_PROD4": "Fora do Estudo", "LATITUDE": -22.551852879500199, "LONGITUDE": -55.706193491645898 }, "geometry": { "type": "Point", "coordinates": [ -55.706193491645898, -22.551852879500199 ] } },
{ "type": "Feature", "properties": { "MUNICIPIO": "Ponta Porã", "ID_ATRATIV": 236, "NOME": "Museu da Erva Mate - Santo Antônio", "RANK_PROD4": "Fora do Estudo", "LATITUDE": -22.5298032293794, "LONGITUDE": -55.735047729413303 }, "geometry": { "type": "Point", "coordinates": [ -55.735047729413303, -22.5298032293794 ] } },
{ "type": "Feature", "properties": { "MUNICIPIO": "Ponta Porã", "ID_ATRATIV": 237, "NOME": "11º Regimento de Cavalaria Mecanizada", "RANK_PROD4": "Fora do Estudo", "LATITUDE": -22.5405007393292, "LONGITUDE": -55.722618988936503 }, "geometry": { "type": "Point", "coordinates": [ -55.722618988936503, -22.5405007393292 ] } },
{ "type": "Feature", "properties": { "MUNICIPIO": "Ponta Porã", "ID_ATRATIV": 238, "NOME": "Prefeitura Municipal de Ponta Porã", "RANK_PROD4": "Fora do Estudo", "LATITUDE": -22.538129528929801, "LONGITUDE": -55.724612602428799 }, "geometry": { "type": "Point", "coordinates": [ -55.724612602428799, -22.538129528929801 ] } },
{ "type": "Feature", "properties": { "MUNICIPIO": "Ponta Porã", "ID_ATRATIV": 239, "NOME": "Parque dos Ervais", "RANK_PROD4": "Fora do Estudo", "LATITUDE": -22.551614717923801, "LONGITUDE": -55.716698761952003 }, "geometry": { "type": "Point", "coordinates": [ -55.716698761952003, -22.551614717923801 ] } },
{ "type": "Feature", "properties": { "MUNICIPIO": "Ponta Porã", "ID_ATRATIV": 240, "NOME": "Monumento das Cuias", "RANK_PROD4": "Fora do Estudo", "LATITUDE": -22.562658473049002, "LONGITUDE": -55.698438292639402 }, "geometry": { "type": "Point", "coordinates": [ -55.698438292639402, -22.562658473049002 ] } },
{ "type": "Feature", "properties": { "MUNICIPIO": "Ponta Porã", "ID_ATRATIV": 241, "NOME": "Majestic Hall Centro de Eventos", "RANK_PROD4": "Fora do Estudo", "LATITUDE": -22.590584627235, "LONGITUDE": -55.674466244755301 }, "geometry": { "type": "Point", "coordinates": [ -55.674466244755301, -22.590584627235 ] } },
{ "type": "Feature", "properties": { "MUNICIPIO": "Ponta Porã", "ID_ATRATIV": 242, "NOME": "Castelinho Atividades cultural", "RANK_PROD4": "Fora do Estudo", "LATITUDE": -22.5231972989464, "LONGITUDE": -55.7351683542811 }, "geometry": { "type": "Point", "coordinates": [ -55.7351683542811, -22.5231972989464 ] } },
{ "type": "Feature", "properties": { "MUNICIPIO": "Ponta Porã", "ID_ATRATIV": 243, "NOME": "Centro Internacional de Convenções “Miguel Gomez”", "RANK_PROD4": "Fora do Estudo", "LATITUDE": -22.524746334308499, "LONGITUDE": -55.721490104281003 }, "geometry": { "type": "Point", "coordinates": [ -55.721490104281003, -22.524746334308499 ] } },
{ "type": "Feature", "properties": { "MUNICIPIO": "Ponta Porã", "ID_ATRATIV": 244, "NOME": "Horto Florestal de Ponta Porã", "RANK_PROD4": "Fora do Estudo", "LATITUDE": -22.526325364107802, "LONGITUDE": -55.725864015384303 }, "geometry": { "type": "Point", "coordinates": [ -55.725864015384303, -22.526325364107802 ] } },
{ "type": "Feature", "properties": { "MUNICIPIO": "Ponta Porã", "ID_ATRATIV": 245, "NOME": "Assentamento Itamarati", "RANK_PROD4": "Fora do Estudo", "LATITUDE": -22.193234151901301, "LONGITUDE": -55.577961445644803 }, "geometry": { "type": "Point", "coordinates": [ -55.577961445644803, -22.193234151901301 ] } },
{ "type": "Feature", "properties": { "MUNICIPIO": "Ponta Porã", "ID_ATRATIV": 246, "NOME": "Prédio Histórico da Estação Ferroviária Noroeste do Brasil", "RANK_PROD4": "Fora do Estudo", "LATITUDE": -22.5236055704795, "LONGITUDE": -55.733643083116903 }, "geometry": { "type": "Point", "coordinates": [ -55.733643083116903, -22.5236055704795 ] } },
{ "type": "Feature", "properties": { "MUNICIPIO": "Porto Murtinho", "ID_ATRATIV": 247, "NOME": "BR - 267", "RANK_PROD4": "Fora do Estudo", "LATITUDE": -21.698903657761299, "LONGITUDE": -57.875884564177099 }, "geometry": { "type": "Point", "coordinates": [ -57.875884564177099, -21.698903657761299 ] } },
{ "type": "Feature", "properties": { "MUNICIPIO": "Porto Murtinho", "ID_ATRATIV": 248, "NOME": "Porto Carandá", "RANK_PROD4": "Fora do Estudo", "LATITUDE": -21.705282901690399, "LONGITUDE": -57.895033096104697 }, "geometry": { "type": "Point", "coordinates": [ -57.895033096104697, -21.705282901690399 ] } },
{ "type": "Feature", "properties": { "MUNICIPIO": "Porto Murtinho", "ID_ATRATIV": 249, "NOME": "Fecho dos Morros", "RANK_PROD4": "Fora do Estudo", "LATITUDE": -21.4770878431268, "LONGITUDE": -57.927766501280701 }, "geometry": { "type": "Point", "coordinates": [ -57.927766501280701, -21.4770878431268 ] } },
{ "type": "Feature", "properties": { "MUNICIPIO": "Porto Murtinho", "ID_ATRATIV": 250, "NOME": "Morro Celina", "RANK_PROD4": "Fora do Estudo", "LATITUDE": -21.456429366280201, "LONGITUDE": -57.923122088969301 }, "geometry": { "type": "Point", "coordinates": [ -57.923122088969301, -21.456429366280201 ] } },
{ "type": "Feature", "properties": { "MUNICIPIO": "Porto Murtinho", "ID_ATRATIV": 251, "NOME": "Cachoeira do Apa", "RANK_PROD4": "Fora do Estudo", "LATITUDE": -21.9929692581665, "LONGITUDE": -57.435862617266302 }, "geometry": { "type": "Point", "coordinates": [ -57.435862617266302, -21.9929692581665 ] } },
{ "type": "Feature", "properties": { "MUNICIPIO": "Porto Murtinho", "ID_ATRATIV": 252, "NOME": "Fazenda Barranco Branco", "RANK_PROD4": "Fora do Estudo", "LATITUDE": -21.1463379124298, "LONGITUDE": -57.6338271408747 }, "geometry": { "type": "Point", "coordinates": [ -57.6338271408747, -21.1463379124298 ] } },
{ "type": "Feature", "properties": { "MUNICIPIO": "Porto Murtinho", "ID_ATRATIV": 253, "NOME": "Cachoeira da Fazenda Primavera", "RANK_PROD4": "Fora do Estudo", "LATITUDE": -22.165880805060901, "LONGITUDE": -57.5238068484718 }, "geometry": { "type": "Point", "coordinates": [ -57.5238068484718, -22.165880805060901 ] } },
{ "type": "Feature", "properties": { "MUNICIPIO": "Porto Murtinho", "ID_ATRATIV": 254, "NOME": "Cachoeira Facão", "RANK_PROD4": "Fora do Estudo", "LATITUDE": -22.165860933201699, "LONGITUDE": -57.523763932136703 }, "geometry": { "type": "Point", "coordinates": [ -57.523763932136703, -22.165860933201699 ] } },
{ "type": "Feature", "properties": { "MUNICIPIO": "Porto Murtinho", "ID_ATRATIV": 255, "NOME": "Paróquia Sagrado Coração de Jesus", "RANK_PROD4": "Fora do Estudo", "LATITUDE": -21.698360170548099, "LONGITUDE": -57.883438289820297 }, "geometry": { "type": "Point", "coordinates": [ -57.883438289820297, -21.698360170548099 ] } },
{ "type": "Feature", "properties": { "MUNICIPIO": "Porto Murtinho", "ID_ATRATIV": 256, "NOME": "Monumento \"O Pantanal\" - Praça dos Tuiuiús", "RANK_PROD4": "Fora do Estudo", "LATITUDE": -21.696947116765099, "LONGITUDE": -57.8879974392676 }, "geometry": { "type": "Point", "coordinates": [ -57.8879974392676, -21.696947116765099 ] } },
{ "type": "Feature", "properties": { "MUNICIPIO": "Porto Murtinho", "ID_ATRATIV": 257, "NOME": "Praça do Tererê", "RANK_PROD4": "Fora do Estudo", "LATITUDE": -21.698029350486099, "LONGITUDE": -57.888845149892703 }, "geometry": { "type": "Point", "coordinates": [ -57.888845149892703, -21.698029350486099 ] } },
{ "type": "Feature", "properties": { "MUNICIPIO": "Porto Murtinho", "ID_ATRATIV": 258, "NOME": "Monumento \"O Pioneiro\"", "RANK_PROD4": "Fora do Estudo", "LATITUDE": -21.6967043993041, "LONGITUDE": -57.8839950456426 }, "geometry": { "type": "Point", "coordinates": [ -57.8839950456426, -21.6967043993041 ] } },
{ "type": "Feature", "properties": { "MUNICIPIO": "Porto Murtinho", "ID_ATRATIV": 259, "NOME": "Monumento ao Lenhador", "RANK_PROD4": "Fora do Estudo", "LATITUDE": -21.700605363923401, "LONGITUDE": -57.886344347491303 }, "geometry": { "type": "Point", "coordinates": [ -57.886344347491303, -21.700605363923401 ] } },
{ "type": "Feature", "properties": { "MUNICIPIO": "Porto Murtinho", "ID_ATRATIV": 260, "NOME": "Monumento ao Chalaneiro", "RANK_PROD4": "Fora do Estudo", "LATITUDE": -21.699507022450302, "LONGITUDE": -57.888806971273603 }, "geometry": { "type": "Point", "coordinates": [ -57.888806971273603, -21.699507022450302 ] } },
{ "type": "Feature", "properties": { "MUNICIPIO": "Porto Murtinho", "ID_ATRATIV": 261, "NOME": "Monumento ao Aguatero", "RANK_PROD4": "Fora do Estudo", "LATITUDE": -21.700623915772201, "LONGITUDE": -57.886373358569202 }, "geometry": { "type": "Point", "coordinates": [ -57.886373358569202, -21.700623915772201 ] } },
{ "type": "Feature", "properties": { "MUNICIPIO": "Porto Murtinho", "ID_ATRATIV": 262, "NOME": "Cine Teatro Murtinhense Ney Machado Mesquita", "RANK_PROD4": "Fora do Estudo", "LATITUDE": -21.6988461398639, "LONGITUDE": -57.889623313109702 }, "geometry": { "type": "Point", "coordinates": [ -57.889623313109702, -21.6988461398639 ] } },
{ "type": "Feature", "properties": { "MUNICIPIO": "Porto Murtinho", "ID_ATRATIV": 263, "NOME": "Edificação Ismail Ali Alouie", "RANK_PROD4": "Fora do Estudo", "LATITUDE": -21.694140564124901, "LONGITUDE": -57.8827175321494 }, "geometry": { "type": "Point", "coordinates": [ -57.8827175321494, -21.694140564124901 ] } },
{ "type": "Feature", "properties": { "MUNICIPIO": "Porto Murtinho", "ID_ATRATIV": 264, "NOME": "Edificação Rafael Cortada Codorniz", "RANK_PROD4": "Fora do Estudo", "LATITUDE": -21.700588079307899, "LONGITUDE": -57.882710072629401 }, "geometry": { "type": "Point", "coordinates": [ -57.882710072629401, -21.700588079307899 ] } },
{ "type": "Feature", "properties": { "MUNICIPIO": "Porto Murtinho", "ID_ATRATIV": 265, "NOME": "Edificação Nelson Cintra Ribeiro", "RANK_PROD4": "Fora do Estudo", "LATITUDE": -21.700578110837501, "LONGITUDE": -57.882774445642497 }, "geometry": { "type": "Point", "coordinates": [ -57.882774445642497, -21.700578110837501 ] } },
{ "type": "Feature", "properties": { "MUNICIPIO": "Porto Murtinho", "ID_ATRATIV": 266, "NOME": "Rio Negro", "RANK_PROD4": "Fora do Estudo", "LATITUDE": -19.437948970689799, "LONGITUDE": -54.987845778156803 }, "geometry": { "type": "Point", "coordinates": [ -54.987845778156803, -19.437948970689799 ] } },
{ "type": "Feature", "properties": { "MUNICIPIO": "Porto Murtinho", "ID_ATRATIV": 267, "NOME": "Rio Perdido", "RANK_PROD4": "Fora do Estudo", "LATITUDE": -21.605944786950101, "LONGITUDE": -57.079989179127203 }, "geometry": { "type": "Point", "coordinates": [ -57.079989179127203, -21.605944786950101 ] } },
{ "type": "Feature", "properties": { "MUNICIPIO": "Porto Murtinho", "ID_ATRATIV": 268, "NOME": "Rio Abobral", "RANK_PROD4": "Fora do Estudo", "LATITUDE": -19.316611324342301, "LONGITUDE": -57.2636289399003 }, "geometry": { "type": "Point", "coordinates": [ -57.2636289399003, -19.316611324342301 ] } },
{ "type": "Feature", "properties": { "MUNICIPIO": "Porto Murtinho", "ID_ATRATIV": 269, "NOME": "Rio Vermelho", "RANK_PROD4": "Fora do Estudo", "LATITUDE": -19.645957968679099, "LONGITUDE": -56.761299228545901 }, "geometry": { "type": "Point", "coordinates": [ -56.761299228545901, -19.645957968679099 ] } },
{ "type": "Feature", "properties": { "MUNICIPIO": "Porto Murtinho", "ID_ATRATIV": 270, "NOME": "Monumento do Touro Candil", "RANK_PROD4": "Fora do Estudo", "LATITUDE": -21.6949126899143, "LONGITUDE": -57.886005374478302 }, "geometry": { "type": "Point", "coordinates": [ -57.886005374478302, -21.6949126899143 ] } },
{ "type": "Feature", "properties": { "MUNICIPIO": "Porto Murtinho", "ID_ATRATIV": 271, "NOME": "Praça do Tererê", "RANK_PROD4": "Fora do Estudo", "LATITUDE": -21.697959569938199, "LONGITUDE": -57.889242116807097 }, "geometry": { "type": "Point", "coordinates": [ -57.889242116807097, -21.697959569938199 ] } }
]
}
