{
"type": "FeatureCollection",
"name": "pontos_afericao_unesco",
"crs": { "type": "name", "properties": { "name": "urn:ogc:def:crs:OGC:1.3:CRS84" } },
"features": [
{ "type": "Feature", "properties": { "MUNICIPIO": "PR - Barracão", "ORDEM": 1, "NOME": "Ponto de aferição 1", "LATITUDE": -26.234514, "LONGITUDE": -53.583155, "JUSTIFIC": "Sobreposição de trajetos e acesso a atrativos relevantes", "DATA_HORA": "31/07/2026, 11:52:18" }, "geometry": { "type": "Point", "coordinates": [ -53.583155, -26.234514 ] } },
{ "type": "Feature", "properties": { "MUNICIPIO": "PR - Barracão", "ORDEM": 2, "NOME": "Ponto de Aferição 2", "LATITUDE": -26.241101, "LONGITUDE": -53.45605, "JUSTIFIC": "ST e acesso a atrativo relevante", "DATA_HORA": "31/07/2026, 11:53:59" }, "geometry": { "type": "Point", "coordinates": [ -53.45605, -26.241101 ] } },
{ "type": "Feature", "properties": { "MUNICIPIO": "PR - Barracão", "ORDEM": 3, "NOME": "Ponto de Aferição 3", "LATITUDE": -26.247418, "LONGITUDE": -53.639299, "JUSTIFIC": "Apesar de não ter fluxo ou sobreposição é uma amostra da malha urbana transfronteiriça e conurbado", "DATA_HORA": "31/07/2026, 11:58:31" }, "geometry": { "type": "Point", "coordinates": [ -53.639299, -26.247418 ] } },
{ "type": "Feature", "properties": { "MUNICIPIO": "PR - Capanema", "ORDEM": 1, "NOME": "Ponto aferição 1", "LATITUDE": -25.599425, "LONGITUDE": -53.910599, "JUSTIFIC": "Além do fluxo, além da sobreposição também é próximo à fronteira e ao rio", "DATA_HORA": "31/07/2026, 11:36:56" }, "geometry": { "type": "Point", "coordinates": [ -53.910599, -25.599425 ] } },
{ "type": "Feature", "properties": { "MUNICIPIO": "PR - Capanema", "ORDEM": 2, "NOME": "Ponto de aferição 2", "LATITUDE": -25.670075, "LONGITUDE": -53.808439, "JUSTIFIC": "Além do fluxo, além da sobreposição de trajetos, também é um ponto próximo do centro da cidade", "DATA_HORA": "31/07/2026, 11:38:07" }, "geometry": { "type": "Point", "coordinates": [ -53.808439, -25.670075 ] } },
{ "type": "Feature", "properties": { "MUNICIPIO": "PR - Capanema", "ORDEM": 3, "NOME": "Ponto de aferição 3", "LATITUDE": -25.618069, "LONGITUDE": -53.79123, "JUSTIFIC": "Ponto de maior sobreposição de trajetos e alto fluxo.", "DATA_HORA": "31/07/2026, 11:41:01" }, "geometry": { "type": "Point", "coordinates": [ -53.79123, -25.618069 ] } },
{ "type": "Feature", "properties": { "MUNICIPIO": "PR - Foz do Iguaçu", "ORDEM": 1, "NOME": "Ponto de aferição 1", "LATITUDE": -25.570472, "LONGITUDE": -54.55508, "JUSTIFIC": "Porque tem uma conjunção entre alta sobreposição de trajetos e fluxo.", "DATA_HORA": "31/07/2026, 11:11:41" }, "geometry": { "type": "Point", "coordinates": [ -54.55508, -25.570472 ] } },
{ "type": "Feature", "properties": { "MUNICIPIO": "PR - Foz do Iguaçu", "ORDEM": 2, "NOME": "Ponto de aferição 2", "LATITUDE": -25.534329, "LONGITUDE": -54.575872, "JUSTIFIC": "Sobreposição de trajetos e alto fluxo", "DATA_HORA": "31/07/2026, 11:15:31" }, "geometry": { "type": "Point", "coordinates": [ -54.575872, -25.534329 ] } },
{ "type": "Feature", "properties": { "MUNICIPIO": "PR - Foz do Iguaçu", "ORDEM": 3, "NOME": "Ponto de aferição 3", "LATITUDE": -25.504605, "LONGITUDE": -54.583855, "JUSTIFIC": "Embora tenham pontos com maior sobreposição e fluxo, este ainda é um ponto de alta sobreposição e fluxo e é um ponto de interesse e integração com a fronteira (mais proximo da fronteira).", "DATA_HORA": "31/07/2026, 11:20:03" }, "geometry": { "type": "Point", "coordinates": [ -54.583855, -25.504605 ] } },
{ "type": "Feature", "properties": { "MUNICIPIO": "PR - Medianeira", "ORDEM": 1, "NOME": "Ponto de aferição 1", "LATITUDE": -25.301331, "LONGITUDE": -54.081718, "JUSTIFIC": "Alta sobreposição de trajetos, fluxo significativo e proximidade dos atrativos/ACT.", "DATA_HORA": "31/07/2026, 11:27:11" }, "geometry": { "type": "Point", "coordinates": [ -54.081718, -25.301331 ] } },
{ "type": "Feature", "properties": { "MUNICIPIO": "PR - Medianeira", "ORDEM": 2, "NOME": "Ponto de aferição 2", "LATITUDE": -25.309173, "LONGITUDE": -54.035461, "JUSTIFIC": "Sobreposição de trajetos, fluxo e proximidade de atrativos", "DATA_HORA": "31/07/2026, 11:28:14" }, "geometry": { "type": "Point", "coordinates": [ -54.035461, -25.309173 ] } },
{ "type": "Feature", "properties": { "MUNICIPIO": "PR - Medianeira", "ORDEM": 3, "NOME": "Ponto de aferição 3", "LATITUDE": -25.240426, "LONGITUDE": -54.062347, "JUSTIFIC": "Alta sobreposição de trajetos, fluxo e proximidade de atrativos relevantes", "DATA_HORA": "31/07/2026, 11:30:23" }, "geometry": { "type": "Point", "coordinates": [ -54.062347, -25.240426 ] } },
{ "type": "Feature", "properties": { "MUNICIPIO": "SC - Dionísio Cerqueira", "ORDEM": 1, "NOME": "Ponto de aferição 1", "LATITUDE": -26.287336, "LONGITUDE": -53.555474, "JUSTIFIC": "Sobreposição de trajetos, alto fluxo e ponto de conurbação entre os municípios", "DATA_HORA": "31/07/2026, 11:44:51" }, "geometry": { "type": "Point", "coordinates": [ -53.555474, -26.287336 ] } },
{ "type": "Feature", "properties": { "MUNICIPIO": "SC - Dionísio Cerqueira", "ORDEM": 2, "NOME": "Ponto de aferição 2", "LATITUDE": -26.255309, "LONGITUDE": -53.636155, "JUSTIFIC": "Sobreposição de trajetos, alto fluxo e dentro do perímetro urbano", "DATA_HORA": "31/07/2026, 11:45:53" }, "geometry": { "type": "Point", "coordinates": [ -53.636155, -26.255309 ] } },
{ "type": "Feature", "properties": { "MUNICIPIO": "SC - Dionísio Cerqueira", "ORDEM": 3, "NOME": "Ponto de aferição 3", "LATITUDE": -26.299455, "LONGITUDE": -53.615727, "JUSTIFIC": "Sobreposição de trajetos, fluxo e proximidade a um ponto turístico relevante", "DATA_HORA": "31/07/2026, 11:47:10" }, "geometry": { "type": "Point", "coordinates": [ -53.615727, -26.299455 ] } }
]
}
